{
  "type": "FeatureCollection",
  "features": [
    {
      "type": "Feature",
      "properties": {
        "conflict_id": "CONF-001",
        "utility_1": "UTIL-WATER-MAIN",
        "utility_2": "UTIL-SEWER-MAIN",
        "z_overlap_min": -2.0,
        "z_overlap_max": -1.5,
        "description": "WATER <-> SEWER SPATIAL OVERLAP",
        "data_status": "DEMO / SYNTHETIC"
      },
      "geometry": {
        "type": "Point",
        "coordinates": [
          80.20834446653515,
          13.0867950626255
        ]
      }
    }
  ]
}