{
  "type": "FeatureCollection",
  "features": [
    {
      "type": "Feature",
      "properties": {
        "parcel_id": "P000001",
        "demo_ulpin": "DEMO-TN-CHN-000001",
        "survey_number": "104/1A",
        "area_sqm": 4315.3399500000005,
        "is_primary": true,
        "data_status": "DEMO / SYNTHETIC",
        "source": "Synthetic Cadastre"
      },
      "geometry": {
        "type": "Polygon",
        "coordinates": [
          [
            [
              80.20872876467794,
              13.087209653685132
            ],
            [
              80.20831500225874,
              13.087239373167373
            ],
            [
              80.20831243336595,
              13.087205006485693
            ],
            [
              80.20821832790614,
              13.087211765758934
            ],
            [
              80.20820901497255,
              13.087087176607094
            ],
            [
              80.20816530958703,
              13.087090315806615
            ],
            [
              80.20813982570567,
              13.086749389515013
            ],
            [
              80.20818353104511,
              13.086746250316333
            ],
            [
              80.20817331081851,
              13.086609523064773
            ],
            [
              80.2082917808713,
              13.086601013749814
            ],
            [
              80.20829002541086,
              13.086577529140213
            ],
            [
              80.20859541219178,
              13.086555593989454
            ],
            [
              80.20859716767683,
              13.086579078606132
            ],
            [
              80.20868117761127,
              13.086573044336292
            ],
            [
              80.20872876467794,
              13.087209653685132
            ]
          ]
        ]
      }
    },
    {
      "type": "Feature",
      "properties": {
        "parcel_id": "P000002",
        "demo_ulpin": "DEMO-TN-CHN-000002",
        "survey_number": "104/2A",
        "area_sqm": 2249.8503,
        "is_primary": false,
        "data_status": "DEMO / SYNTHETIC",
        "source": "Synthetic Cadastre"
      },
      "geometry": {
        "type": "Polygon",
        "coordinates": [
          [
            [
              80.20710309490062,
              13.081878384695822
            ],
            [
              80.20712073490674,
              13.08206330469522
            ],
            [
              80.2070693749077,
              13.0820681046969
            ],
            [
              80.20708413491394,
              13.08225578469642
            ],
            [
              80.20710345492067,
              13.0824589446957
            ],
            [
              80.20710009492066,
              13.08245930469582
            ],
            [
              80.20710021492077,
              13.082460984695821
            ],
            [
              80.20689057492439,
              13.08247838470266
            ],
            [
              80.20689045492426,
              13.082476824702661
            ],
            [
              80.20688697492439,
              13.08247706470278
            ],
            [
              80.20687929492114,
              13.08237962470302
            ],
            [
              80.20681161492222,
              13.0823846647053
            ],
            [
              80.20679073491418,
              13.08213914470602
            ],
            [
              80.20673577491503,
              13.0821433447077
            ],
            [
              80.2067242549101,
              13.08199586470818
            ],
            [
              80.20671645490746,
              13.08191378470842
            ],
            [
              80.20671789490746,
              13.081913664708301
            ],
            [
              80.20671765490734,
              13.0819110247083
            ],
            [
              80.2068785749046,
              13.08189890470314
            ],
            [
              80.20710309490062,
              13.081878384695822
            ]
          ]
        ]
      }
    },
    {
      "type": "Feature",
      "properties": {
        "parcel_id": "P000003",
        "demo_ulpin": "DEMO-TN-CHN-000003",
        "survey_number": "104/3A",
        "area_sqm": 1857.0670499999999,
        "is_primary": false,
        "data_status": "DEMO / SYNTHETIC",
        "source": "Synthetic Cadastre"
      },
      "geometry": {
        "type": "Polygon",
        "coordinates": [
          [
            [
              80.20905877550011,
              13.087293945959047
            ],
            [
              80.20909717551629,
              13.087782345957725
            ],
            [
              80.20895197551881,
              13.087793265962526
            ],
            [
              80.20895401551967,
              13.087818105962407
            ],
            [
              80.20909921551714,
              13.087807185957725
            ],
            [
              80.20911781552506,
              13.088043705957126
            ],
            [
              80.20892665552829,
              13.088058105963366
            ],
            [
              80.20891585552373,
              13.087920825963726
            ],
            [
              80.2088907755241,
              13.087922745964446
            ],
            [
              80.20888297552086,
              13.087823505964806
            ],
            [
              80.20890805552038,
              13.087821585963967
            ],
            [
              80.20888981551269,
              13.087589505964566
            ],
            [
              80.20893577551186,
              13.087586025963008
            ],
            [
              80.20893457551138,
              13.087570905963126
            ],
            [
              80.20886353551258,
              13.087576305965406
            ],
            [
              80.20885465550886,
              13.087463505965648
            ],
            [
              80.20887973550838,
              13.087461585964807
            ],
            [
              80.20887661550705,
              13.087422225964925
            ],
            [
              80.20885153550753,
              13.087424145965766
            ],
            [
              80.2088425355037,
              13.087310265966126
            ],
            [
              80.20905877550011,
              13.087293945959047
            ]
          ]
        ]
      }
    },
    {
      "type": "Feature",
      "properties": {
        "parcel_id": "P000004",
        "demo_ulpin": "DEMO-TN-CHN-000004",
        "survey_number": "104/4A",
        "area_sqm": 1721.80755,
        "is_primary": false,
        "data_status": "DEMO / SYNTHETIC",
        "source": "Synthetic Cadastre"
      },
      "geometry": {
        "type": "Polygon",
        "coordinates": [
          [
            [
              80.20487735387547,
              13.08967327114042
            ],
            [
              80.2048901938769,
              13.08972127113994
            ],
            [
              80.20485071387787,
              13.08973171114126
            ],
            [
              80.20488263388135,
              13.089845831140181
            ],
            [
              80.20487471388147,
              13.08984787114042
            ],
            [
              80.20488467388255,
              13.089884351140181
            ],
            [
              80.20434263389527,
              13.09002703115782
            ],
            [
              80.20432415389334,
              13.089960791158418
            ],
            [
              80.20423031389551,
              13.08998551116154
            ],
            [
              80.20421303389358,
              13.089922511162019
            ],
            [
              80.20423955389299,
              13.089915431161181
            ],
            [
              80.20421255388999,
              13.08981895116202
            ],
            [
              80.20437155388626,
              13.08977635115686
            ],
            [
              80.20437311388639,
              13.089781871156859
            ],
            [
              80.20448447388374,
              13.08975259115314
            ],
            [
              80.20449119388459,
              13.08977683115302
            ],
            [
              80.20487735387547,
              13.08967327114042
            ]
          ]
        ]
      }
    },
    {
      "type": "Feature",
      "properties": {
        "parcel_id": "P000005",
        "demo_ulpin": "DEMO-TN-CHN-000005",
        "survey_number": "104/5A",
        "area_sqm": 1556.5327499999999,
        "is_primary": false,
        "data_status": "DEMO / SYNTHETIC",
        "source": "Synthetic Cadastre"
      },
      "geometry": {
        "type": "Polygon",
        "coordinates": [
          [
            [
              80.20484572772274,
              13.089496943290808
            ],
            [
              80.20482460772321,
              13.089502343291526
            ],
            [
              80.20484740772596,
              13.089589103290807
            ],
            [
              80.20430392773845,
              13.089726383308568
            ],
            [
              80.20428916773677,
              13.089670103309047
            ],
            [
              80.20426636773726,
              13.089675863309768
            ],
            [
              80.20422760773282,
              13.089528743311085
            ],
            [
              80.20481500771926,
              13.089380423291885
            ],
            [
              80.20484572772274,
              13.089496943290808
            ]
          ]
        ]
      }
    },
    {
      "type": "Feature",
      "properties": {
        "parcel_id": "P000006",
        "demo_ulpin": "DEMO-TN-CHN-000006",
        "survey_number": "104/6A",
        "area_sqm": 1435.8888,
        "is_primary": false,
        "data_status": "DEMO / SYNTHETIC",
        "source": "Synthetic Cadastre"
      },
      "geometry": {
        "type": "Polygon",
        "coordinates": [
          [
            [
              80.20426782562515,
              13.082592962016703
            ],
            [
              80.20408606604069,
              13.082601353586702
            ],
            [
              80.20408491007167,
              13.082577293505821
            ],
            [
              80.203773307966,
              13.082591679464024
            ],
            [
              80.20376261258008,
              13.082369063113783
            ],
            [
              80.20425597388575,
              13.082346285580662
            ],
            [
              80.20426782562515,
              13.082592962016703
            ]
          ]
        ]
      }
    },
    {
      "type": "Feature",
      "properties": {
        "parcel_id": "P000007",
        "demo_ulpin": "DEMO-TN-CHN-000007",
        "survey_number": "104/7A",
        "area_sqm": 1428.5553,
        "is_primary": false,
        "data_status": "DEMO / SYNTHETIC",
        "source": "Synthetic Cadastre"
      },
      "geometry": {
        "type": "Polygon",
        "coordinates": [
          [
            [
              80.20487140325396,
              13.089008139273734
            ],
            [
              80.20441108326153,
              13.089036099288736
            ],
            [
              80.20441096326142,
              13.089034299288736
            ],
            [
              80.20435540326237,
              13.089037779290534
            ],
            [
              80.20434376325625,
              13.088853699290894
            ],
            [
              80.20436824325577,
              13.088852259290174
            ],
            [
              80.20436668325492,
              13.088827899290175
            ],
            [
              80.20439776325446,
              13.088825979289215
            ],
            [
              80.20439932325529,
              13.088850339289094
            ],
            [
              80.20444756325445,
              13.088847459287534
            ],
            [
              80.20444432325277,
              13.088796219287653
            ],
            [
              80.20477516324736,
              13.088776059276855
            ],
            [
              80.20477852324905,
              13.088827299276735
            ],
            [
              80.20485964324773,
              13.088822379274095
            ],
            [
              80.20487140325396,
              13.089008139273734
            ]
          ]
        ]
      }
    },
    {
      "type": "Feature",
      "properties": {
        "parcel_id": "P000008",
        "demo_ulpin": "DEMO-TN-CHN-000008",
        "survey_number": "104/8A",
        "area_sqm": 1290.4512,
        "is_primary": false,
        "data_status": "DEMO / SYNTHETIC",
        "source": "Synthetic Cadastre"
      },
      "geometry": {
        "type": "Polygon",
        "coordinates": [
          [
            [
              80.20238076739119,
              13.084655616276816
            ],
            [
              80.20191400789119,
              13.084687254263855
            ],
            [
              80.20189853663933,
              13.084467922496017
            ],
            [
              80.20236529579407,
              13.084436284512096
            ],
            [
              80.20238076739119,
              13.084655616276816
            ]
          ]
        ]
      }
    },
    {
      "type": "Feature",
      "properties": {
        "parcel_id": "P000009",
        "demo_ulpin": "DEMO-TN-CHN-000009",
        "survey_number": "104/9A",
        "area_sqm": 1274.6102999999998,
        "is_primary": false,
        "data_status": "DEMO / SYNTHETIC",
        "source": "Synthetic Cadastre"
      },
      "geometry": {
        "type": "Polygon",
        "coordinates": [
          [
            [
              80.20828731938857,
              13.087730010048523
            ],
            [
              80.20791599430649,
              13.087760707091924
            ],
            [
              80.20789262002106,
              13.087489016055404
            ],
            [
              80.20826394476101,
              13.087458319020525
            ],
            [
              80.20828731938857,
              13.087730010048523
            ]
          ]
        ]
      }
    },
    {
      "type": "Feature",
      "properties": {
        "parcel_id": "P000010",
        "demo_ulpin": "DEMO-TN-CHN-000010",
        "survey_number": "104/10A",
        "area_sqm": 1235.65785,
        "is_primary": false,
        "data_status": "DEMO / SYNTHETIC",
        "source": "Synthetic Cadastre"
      },
      "geometry": {
        "type": "Polygon",
        "coordinates": [
          [
            [
              80.21005426871918,
              13.08516784967551
            ],
            [
              80.21006362872555,
              13.085355409675271
            ],
            [
              80.21005330872566,
              13.085355889675512
            ],
            [
              80.21005486872673,
              13.08538708967551
            ],
            [
              80.20961458873381,
              13.085408209689913
            ],
            [
              80.20960354872649,
              13.085189449690272
            ],
            [
              80.21005426871918,
              13.08516784967551
            ]
          ]
        ]
      }
    },
    {
      "type": "Feature",
      "properties": {
        "parcel_id": "P000011",
        "demo_ulpin": "DEMO-TN-CHN-000011",
        "survey_number": "104/11A",
        "area_sqm": 1200.2646,
        "is_primary": false,
        "data_status": "DEMO / SYNTHETIC",
        "source": "Synthetic Cadastre"
      },
      "geometry": {
        "type": "Polygon",
        "coordinates": [
          [
            [
              80.20689746527658,
              13.085215078673013
            ],
            [
              80.20690022527839,
              13.085265478672895
            ],
            [
              80.20697594527707,
              13.085261518670373
            ],
            [
              80.20698050527994,
              13.085346238670255
            ],
            [
              80.20716014527707,
              13.085336758664374
            ],
            [
              80.20717178528427,
              13.085551438664012
            ],
            [
              80.20681874529002,
              13.085569918675533
            ],
            [
              80.20679966527825,
              13.085220238676134
            ],
            [
              80.20689746527658,
              13.085215078673013
            ]
          ]
        ]
      }
    },
    {
      "type": "Feature",
      "properties": {
        "parcel_id": "P000012",
        "demo_ulpin": "DEMO-TN-CHN-000012",
        "survey_number": "104/12A",
        "area_sqm": 1177.63305,
        "is_primary": false,
        "data_status": "DEMO / SYNTHETIC",
        "source": "Synthetic Cadastre"
      },
      "geometry": {
        "type": "Polygon",
        "coordinates": [
          [
            [
              80.20872852558847,
              13.08823731767587
            ],
            [
              80.20864236558991,
              13.088245237678631
            ],
            [
              80.20865352559387,
              13.08836307767827
            ],
            [
              80.2087396855923,
              13.088355277675511
            ],
            [
              80.20874460559399,
              13.088406757675271
            ],
            [
              80.20865844559555,
              13.088414557678151
            ],
            [
              80.20866600559818,
              13.08849447767791
            ],
            [
              80.20856028559999,
              13.08850407768139
            ],
            [
              80.20855596559853,
              13.08845799768151
            ],
            [
              80.20852320559902,
              13.08846099768259
            ],
            [
              80.20852008559794,
              13.08842715768271
            ],
            [
              80.20846092559903,
              13.088432557684632
            ],
            [
              80.20846404560011,
              13.088466277684512
            ],
            [
              80.20843140560069,
              13.088469277685592
            ],
            [
              80.20843572560227,
              13.08851547768547
            ],
            [
              80.20832724560407,
              13.088525317688951
            ],
            [
              80.20831476559974,
              13.088393917689311
            ],
            [
              80.20833348559938,
              13.08839223768871
            ],
            [
              80.2083303655983,
              13.088359237688831
            ],
            [
              80.20831164559867,
              13.08836091768943
            ],
            [
              80.20830588559674,
              13.08830067768967
            ],
            [
              80.20832460559637,
              13.088298997689071
            ],
            [
              80.20831800559411,
              13.08822951768931
            ],
            [
              80.20846680559147,
              13.088215957684392
            ],
            [
              80.20847100559291,
              13.08826083768427
            ],
            [
              80.20841220559399,
              13.08826611768619
            ],
            [
              80.20841448559483,
              13.08829083768607
            ],
            [
              80.20850628559315,
              13.088282437683072
            ],
            [
              80.20850400559232,
              13.08825783768319
            ],
            [
              80.20853664559182,
              13.088254837682111
            ],
            [
              80.20853244559027,
              13.08820995768223
            ],
            [
              80.2087243255869,
              13.08819255767599
            ],
            [
              80.20872852558847,
              13.08823731767587
            ]
          ]
        ]
      }
    },
    {
      "type": "Feature",
      "properties": {
        "parcel_id": "P000013",
        "demo_ulpin": "DEMO-TN-CHN-000013",
        "survey_number": "104/13A",
        "area_sqm": 1163.04315,
        "is_primary": false,
        "data_status": "DEMO / SYNTHETIC",
        "source": "Synthetic Cadastre"
      },
      "geometry": {
        "type": "Polygon",
        "coordinates": [
          [
            [
              80.20582135737205,
              13.085594146969534
            ],
            [
              80.20582951737671,
              13.085733706969295
            ],
            [
              80.20530547738525,
              13.085763346986454
            ],
            [
              80.20529503737923,
              13.085586586986814
            ],
            [
              80.20581283737086,
              13.085557306969894
            ],
            [
              80.20581499737216,
              13.085594506969775
            ],
            [
              80.20582135737205,
              13.085594146969534
            ]
          ]
        ]
      }
    },
    {
      "type": "Feature",
      "properties": {
        "parcel_id": "P000014",
        "demo_ulpin": "DEMO-TN-CHN-000014",
        "survey_number": "104/14A",
        "area_sqm": 1152.23355,
        "is_primary": false,
        "data_status": "DEMO / SYNTHETIC",
        "source": "Synthetic Cadastre"
      },
      "geometry": {
        "type": "Polygon",
        "coordinates": [
          [
            [
              80.2031125891037,
              13.089617123826256
            ],
            [
              80.20271451568671,
              13.089639740298974
            ],
            [
              80.20270091872827,
              13.089409779291016
            ],
            [
              80.20309899183903,
              13.089387162817095
            ],
            [
              80.2031125891037,
              13.089617123826256
            ]
          ]
        ]
      }
    },
    {
      "type": "Feature",
      "properties": {
        "parcel_id": "P000015",
        "demo_ulpin": "DEMO-TN-CHN-000015",
        "survey_number": "104/15A",
        "area_sqm": 1138.23135,
        "is_primary": false,
        "data_status": "DEMO / SYNTHETIC",
        "source": "Synthetic Cadastre"
      },
      "geometry": {
        "type": "Polygon",
        "coordinates": [
          [
            [
              80.20127352024943,
              13.08295940575076
            ],
            [
              80.20128178259816,
              13.08309757631792
            ],
            [
              80.20136587411892,
              13.083092744243482
            ],
            [
              80.2013727060494,
              13.083206993456601
            ],
            [
              80.20096326054932,
              13.083230520823639
            ],
            [
              80.20095642877652,
              13.083116271610761
            ],
            [
              80.2010062443908,
              13.08311340915716
            ],
            [
              80.20100466769844,
              13.08308704186592
            ],
            [
              80.20095485208907,
              13.083089904319639
            ],
            [
              80.20094816657948,
              13.082978101043961
            ],
            [
              80.20127352024943,
              13.08295940575076
            ]
          ]
        ]
      }
    },
    {
      "type": "Feature",
      "properties": {
        "parcel_id": "P000016",
        "demo_ulpin": "DEMO-TN-CHN-000016",
        "survey_number": "104/16A",
        "area_sqm": 1136.2377000000001,
        "is_primary": false,
        "data_status": "DEMO / SYNTHETIC",
        "source": "Synthetic Cadastre"
      },
      "geometry": {
        "type": "Polygon",
        "coordinates": [
          [
            [
              80.20862270402947,
              13.082700764250523
            ],
            [
              80.2086420130833,
              13.083153797720202
            ],
            [
              80.20838730622962,
              13.083164229523003
            ],
            [
              80.2083814879874,
              13.083027717879284
            ],
            [
              80.20846039923606,
              13.083024486001483
            ],
            [
              80.20844690872926,
              13.082707964180683
            ],
            [
              80.20862270402947,
              13.082700764250523
            ]
          ]
        ]
      }
    },
    {
      "type": "Feature",
      "properties": {
        "parcel_id": "P000017",
        "demo_ulpin": "DEMO-TN-CHN-000017",
        "survey_number": "104/17A",
        "area_sqm": 1109.7465,
        "is_primary": false,
        "data_status": "DEMO / SYNTHETIC",
        "source": "Synthetic Cadastre"
      },
      "geometry": {
        "type": "Polygon",
        "coordinates": [
          [
            [
              80.2030915146623,
              13.089319064139437
            ],
            [
              80.20270386948603,
              13.089337062261556
            ],
            [
              80.20269286763666,
              13.089109369624635
            ],
            [
              80.2030805125151,
              13.089091371499036
            ],
            [
              80.2030915146623,
              13.089319064139437
            ]
          ]
        ]
      }
    },
    {
      "type": "Feature",
      "properties": {
        "parcel_id": "P000018",
        "demo_ulpin": "DEMO-TN-CHN-000018",
        "survey_number": "104/18A",
        "area_sqm": 1094.2359,
        "is_primary": false,
        "data_status": "DEMO / SYNTHETIC",
        "source": "Synthetic Cadastre"
      },
      "geometry": {
        "type": "Polygon",
        "coordinates": [
          [
            [
              80.20426815608276,
              13.087806941388823
            ],
            [
              80.20368633155155,
              13.087968317865704
            ],
            [
              80.20364626588892,
              13.087829514165703
            ],
            [
              80.204228090162,
              13.087668137748343
            ],
            [
              80.20426815608276,
              13.087806941388823
            ]
          ]
        ]
      }
    },
    {
      "type": "Feature",
      "properties": {
        "parcel_id": "P000019",
        "demo_ulpin": "DEMO-TN-CHN-000019",
        "survey_number": "104/19A",
        "area_sqm": 1038.15345,
        "is_primary": false,
        "data_status": "DEMO / SYNTHETIC",
        "source": "Synthetic Cadastre"
      },
      "geometry": {
        "type": "Polygon",
        "coordinates": [
          [
            [
              80.20696156973379,
              13.083643403337618
            ],
            [
              80.20683366890069,
              13.083648582795137
            ],
            [
              80.20683219191008,
              13.083613535076259
            ],
            [
              80.20670732855213,
              13.083618591477498
            ],
            [
              80.20669430248611,
              13.083309491121257
            ],
            [
              80.20694706639748,
              13.083299255257216
            ],
            [
              80.20696156973379,
              13.083643403337618
            ]
          ]
        ]
      }
    },
    {
      "type": "Feature",
      "properties": {
        "parcel_id": "P000020",
        "demo_ulpin": "DEMO-TN-CHN-000020",
        "survey_number": "104/20A",
        "area_sqm": 1005.2707500000001,
        "is_primary": false,
        "data_status": "DEMO / SYNTHETIC",
        "source": "Synthetic Cadastre"
      },
      "geometry": {
        "type": "Polygon",
        "coordinates": [
          [
            [
              80.20275668013348,
              13.082507952707662
            ],
            [
              80.20272740013397,
              13.082509512708622
            ],
            [
              80.20273208013684,
              13.082597232708503
            ],
            [
              80.20229300014402,
              13.082619912722903
            ],
            [
              80.20228364013803,
              13.082443752723142
            ],
            [
              80.20275200013047,
              13.082419632707902
            ],
            [
              80.20275668013348,
              13.082507952707662
            ]
          ]
        ]
      }
    },
    {
      "type": "Feature",
      "properties": {
        "parcel_id": "P000021",
        "demo_ulpin": "DEMO-TN-CHN-000021",
        "survey_number": "104/21A",
        "area_sqm": 961.5618,
        "is_primary": false,
        "data_status": "DEMO / SYNTHETIC",
        "source": "Synthetic Cadastre"
      },
      "geometry": {
        "type": "Polygon",
        "coordinates": [
          [
            [
              80.2082955293167,
              13.088084600575216
            ],
            [
              80.20818200931885,
              13.088098640578817
            ],
            [
              80.20818740932017,
              13.088141240578697
            ],
            [
              80.20830104931802,
              13.088127200574977
            ],
            [
              80.20831184932078,
              13.088211080574617
            ],
            [
              80.20792424932797,
              13.088258960587337
            ],
            [
              80.20791632932605,
              13.088197880587579
            ],
            [
              80.20793804932558,
              13.088195240586856
            ],
            [
              80.20793504932485,
              13.088172560586978
            ],
            [
              80.2079248493251,
              13.088173760587217
            ],
            [
              80.2079082893209,
              13.088045360587817
            ],
            [
              80.20828448931383,
              13.087998920575577
            ],
            [
              80.2082955293167,
              13.088084600575216
            ]
          ]
        ]
      }
    },
    {
      "type": "Feature",
      "properties": {
        "parcel_id": "P000022",
        "demo_ulpin": "DEMO-TN-CHN-000022",
        "survey_number": "104/22A",
        "area_sqm": 945.1338000000001,
        "is_primary": false,
        "data_status": "DEMO / SYNTHETIC",
        "source": "Synthetic Cadastre"
      },
      "geometry": {
        "type": "Polygon",
        "coordinates": [
          [
            [
              80.20642939823655,
              13.080630935836439
            ],
            [
              80.20682095823113,
              13.080637775823599
            ],
            [
              80.20682035823235,
              13.080672095823719
            ],
            [
              80.20679191823271,
              13.080671615824558
            ],
            [
              80.20679131823378,
              13.080703295824678
            ],
            [
              80.20681987823342,
              13.080703775823718
            ],
            [
              80.20681903823487,
              13.080745175823719
            ],
            [
              80.20664875823726,
              13.080742295829237
            ],
            [
              80.20664659824122,
              13.080857375829359
            ],
            [
              80.20661419824171,
              13.080856775830439
            ],
            [
              80.20661347824327,
              13.080902615830437
            ],
            [
              80.2064244782458,
              13.080899375836557
            ],
            [
              80.20642939823655,
              13.080630935836439
            ]
          ]
        ]
      }
    },
    {
      "type": "Feature",
      "properties": {
        "parcel_id": "P000023",
        "demo_ulpin": "DEMO-TN-CHN-000023",
        "survey_number": "104/23A",
        "area_sqm": 941.6922,
        "is_primary": false,
        "data_status": "DEMO / SYNTHETIC",
        "source": "Synthetic Cadastre"
      },
      "geometry": {
        "type": "Polygon",
        "coordinates": [
          [
            [
              80.2050920875683,
              13.081977800833679
            ],
            [
              80.2047727874403,
              13.08199580501532
            ],
            [
              80.20477151691307,
              13.08197415242436
            ],
            [
              80.20468174034336,
              13.08197921454144
            ],
            [
              80.20467200051203,
              13.08181322537112
            ],
            [
              80.20508107695882,
              13.0817901590718
            ],
            [
              80.2050920875683,
              13.081977800833679
            ]
          ]
        ]
      }
    },
    {
      "type": "Feature",
      "properties": {
        "parcel_id": "P000024",
        "demo_ulpin": "DEMO-TN-CHN-000024",
        "survey_number": "104/24A",
        "area_sqm": 937.7952,
        "is_primary": false,
        "data_status": "DEMO / SYNTHETIC",
        "source": "Synthetic Cadastre"
      },
      "geometry": {
        "type": "Polygon",
        "coordinates": [
          [
            [
              80.20919843104787,
              13.085875433717824
            ],
            [
              80.20861895105722,
              13.085902433736784
            ],
            [
              80.2086127110529,
              13.085773793736903
            ],
            [
              80.20919219104354,
              13.085746553718064
            ],
            [
              80.20919843104787,
              13.085875433717824
            ]
          ]
        ]
      }
    },
    {
      "type": "Feature",
      "properties": {
        "parcel_id": "P000025",
        "demo_ulpin": "DEMO-TN-CHN-000025",
        "survey_number": "104/25A",
        "area_sqm": 911.9952000000001,
        "is_primary": false,
        "data_status": "DEMO / SYNTHETIC",
        "source": "Synthetic Cadastre"
      },
      "geometry": {
        "type": "Polygon",
        "coordinates": [
          [
            [
              80.20719020706238,
              13.085497224446566
            ],
            [
              80.20719764706753,
              13.085652744446326
            ],
            [
              80.20716752706802,
              13.085654064447406
            ],
            [
              80.20717160707078,
              13.085736624447286
            ],
            [
              80.2070519670727,
              13.085742144451125
            ],
            [
              80.20705088707199,
              13.085720304451126
            ],
            [
              80.20694192707377,
              13.085725344454724
            ],
            [
              80.2069430070745,
              13.085747184454727
            ],
            [
              80.20688192707546,
              13.085750064456647
            ],
            [
              80.2068778470727,
              13.085667624456766
            ],
            [
              80.20685348707306,
              13.085668704457605
            ],
            [
              80.20685096707126,
              13.085615184457726
            ],
            [
              80.20687532707089,
              13.085614104456884
            ],
            [
              80.20687040706741,
              13.085512104457125
            ],
            [
              80.20719020706238,
              13.085497224446566
            ]
          ]
        ]
      }
    },
    {
      "type": "Feature",
      "properties": {
        "parcel_id": "P000026",
        "demo_ulpin": "DEMO-TN-CHN-000026",
        "survey_number": "104/26A",
        "area_sqm": 900.9705000000001,
        "is_primary": false,
        "data_status": "DEMO / SYNTHETIC",
        "source": "Synthetic Cadastre"
      },
      "geometry": {
        "type": "Polygon",
        "coordinates": [
          [
            [
              80.20286375908722,
              13.084695933898928
            ],
            [
              80.20257023909203,
              13.084713453908527
            ],
            [
              80.20255511908387,
              13.084469613909008
            ],
            [
              80.20284863907906,
              13.084452213899407
            ],
            [
              80.20286375908722,
              13.084695933898928
            ]
          ]
        ]
      }
    },
    {
      "type": "Feature",
      "properties": {
        "parcel_id": "P000027",
        "demo_ulpin": "DEMO-TN-CHN-000027",
        "survey_number": "104/27A",
        "area_sqm": 881.12895,
        "is_primary": false,
        "data_status": "DEMO / SYNTHETIC",
        "source": "Synthetic Cadastre"
      },
      "geometry": {
        "type": "Polygon",
        "coordinates": [
          [
            [
              80.20880187879239,
              13.082152029290354
            ],
            [
              80.20880866368526,
              13.082361985348756
            ],
            [
              80.20872058728587,
              13.082364720410355
            ],
            [
              80.20872218181705,
              13.082414063058676
            ],
            [
              80.20864071230397,
              13.082416592931674
            ],
            [
              80.20863854491498,
              13.082349522683716
            ],
            [
              80.20847962710394,
              13.082354457498916
            ],
            [
              80.2084734153049,
              13.082162229046396
            ],
            [
              80.20880187879239,
              13.082152029290354
            ]
          ]
        ]
      }
    },
    {
      "type": "Feature",
      "properties": {
        "parcel_id": "P000028",
        "demo_ulpin": "DEMO-TN-CHN-000028",
        "survey_number": "104/28A",
        "area_sqm": 876.9027000000001,
        "is_primary": false,
        "data_status": "DEMO / SYNTHETIC",
        "source": "Synthetic Cadastre"
      },
      "geometry": {
        "type": "Polygon",
        "coordinates": [
          [
            [
              80.20434091217653,
              13.089541316641887
            ],
            [
              80.20430671217714,
              13.089544436642967
            ],
            [
              80.2043200321817,
              13.089682916642486
            ],
            [
              80.20398751218757,
              13.089713516653408
            ],
            [
              80.20396735218061,
              13.089503996654008
            ],
            [
              80.2042480321757,
              13.089478196644887
            ],
            [
              80.20425127217678,
              13.089510836644767
            ],
            [
              80.20433731217521,
              13.089502916642006
            ],
            [
              80.20434091217653,
              13.089541316641887
            ]
          ]
        ]
      }
    },
    {
      "type": "Feature",
      "properties": {
        "parcel_id": "P000029",
        "demo_ulpin": "DEMO-TN-CHN-000029",
        "survey_number": "104/29A",
        "area_sqm": 856.17705,
        "is_primary": false,
        "data_status": "DEMO / SYNTHETIC",
        "source": "Synthetic Cadastre"
      },
      "geometry": {
        "type": "Polygon",
        "coordinates": [
          [
            [
              80.20374753604648,
              13.08183003626792
            ],
            [
              80.20341734895447,
              13.08184134299576
            ],
            [
              80.20340999253112,
              13.081634903149762
            ],
            [
              80.20374017939344,
              13.08162359641664
            ],
            [
              80.20374753604648,
              13.08183003626792
            ]
          ]
        ]
      }
    },
    {
      "type": "Feature",
      "properties": {
        "parcel_id": "P000030",
        "demo_ulpin": "DEMO-TN-CHN-000030",
        "survey_number": "104/30A",
        "area_sqm": 853.84245,
        "is_primary": false,
        "data_status": "DEMO / SYNTHETIC",
        "source": "Synthetic Cadastre"
      },
      "geometry": {
        "type": "Polygon",
        "coordinates": [
          [
            [
              80.2055493266986,
              13.086597375331863
            ],
            [
              80.205541940077,
              13.08659809718574
            ],
            [
              80.20555057616728,
              13.086683013962462
            ],
            [
              80.20529716548592,
              13.086707778279662
            ],
            [
              80.20528852946786,
              13.086622861501382
            ],
            [
              80.20525685554,
              13.086625956791462
            ],
            [
              80.20524911538075,
              13.086549848756462
            ],
            [
              80.20528078930012,
              13.086546753466623
            ],
            [
              80.20527158078583,
              13.086456207340381
            ],
            [
              80.20553237787146,
              13.0864307211777
            ],
            [
              80.2055493266986,
              13.086597375331863
            ]
          ]
        ]
      }
    }
  ]
}