{
  "type": "FeatureCollection",
  "features": [
    {
      "type": "Feature",
      "properties": {
        "unit_id": "U01",
        "floor_id": "F01",
        "property_3d_id": "3D-CHN-P000001-B01-F01-U01",
        "area_sqm": 75.0,
        "z_min": 0.0,
        "z_max": 3.2,
        "volume_m3": 240.0,
        "data_status": "DEMO / SYNTHETIC"
      },
      "geometry": {
        "type": "Polygon",
        "coordinates": [
          [
            [
              80.2081790752967,
              13.0866101546347
            ],
            [
              80.20842446653515,
              13.0866101546347
            ],
            [
              80.20842446653515,
              13.0868950626255
            ],
            [
              80.2081790752967,
              13.0868950626255
            ],
            [
              80.2081790752967,
              13.0866101546347
            ]
          ]
        ]
      }
    },
    {
      "type": "Feature",
      "properties": {
        "unit_id": "U02",
        "floor_id": "F01",
        "property_3d_id": "3D-CHN-P000001-B01-F01-U02",
        "area_sqm": 75.0,
        "z_min": 0.0,
        "z_max": 3.2,
        "volume_m3": 240.0,
        "data_status": "DEMO / SYNTHETIC"
      },
      "geometry": {
        "type": "Polygon",
        "coordinates": [
          [
            [
              80.20842446653515,
              13.0866101546347
            ],
            [
              80.2086698577736,
              13.0866101546347
            ],
            [
              80.2086698577736,
              13.0868950626255
            ],
            [
              80.20842446653515,
              13.0868950626255
            ],
            [
              80.20842446653515,
              13.0866101546347
            ]
          ]
        ]
      }
    },
    {
      "type": "Feature",
      "properties": {
        "unit_id": "U03",
        "floor_id": "F01",
        "property_3d_id": "3D-CHN-P000001-B01-F01-U03",
        "area_sqm": 75.0,
        "z_min": 0.0,
        "z_max": 3.2,
        "volume_m3": 240.0,
        "data_status": "DEMO / SYNTHETIC"
      },
      "geometry": {
        "type": "Polygon",
        "coordinates": [
          [
            [
              80.2081790752967,
              13.0868950626255
            ],
            [
              80.20842446653515,
              13.0868950626255
            ],
            [
              80.20842446653515,
              13.0871799706163
            ],
            [
              80.2081790752967,
              13.0871799706163
            ],
            [
              80.2081790752967,
              13.0868950626255
            ]
          ]
        ]
      }
    },
    {
      "type": "Feature",
      "properties": {
        "unit_id": "U04",
        "floor_id": "F01",
        "property_3d_id": "3D-CHN-P000001-B01-F01-U04",
        "area_sqm": 75.0,
        "z_min": 0.0,
        "z_max": 3.2,
        "volume_m3": 240.0,
        "data_status": "DEMO / SYNTHETIC"
      },
      "geometry": {
        "type": "Polygon",
        "coordinates": [
          [
            [
              80.20842446653515,
              13.0868950626255
            ],
            [
              80.2086698577736,
              13.0868950626255
            ],
            [
              80.2086698577736,
              13.0871799706163
            ],
            [
              80.20842446653515,
              13.0871799706163
            ],
            [
              80.20842446653515,
              13.0868950626255
            ]
          ]
        ]
      }
    },
    {
      "type": "Feature",
      "properties": {
        "unit_id": "U01",
        "floor_id": "F02",
        "property_3d_id": "3D-CHN-P000001-B01-F02-U01",
        "area_sqm": 75.0,
        "z_min": 3.2,
        "z_max": 6.4,
        "volume_m3": 240.0,
        "data_status": "DEMO / SYNTHETIC"
      },
      "geometry": {
        "type": "Polygon",
        "coordinates": [
          [
            [
              80.2081790752967,
              13.0866101546347
            ],
            [
              80.20842446653515,
              13.0866101546347
            ],
            [
              80.20842446653515,
              13.0868950626255
            ],
            [
              80.2081790752967,
              13.0868950626255
            ],
            [
              80.2081790752967,
              13.0866101546347
            ]
          ]
        ]
      }
    },
    {
      "type": "Feature",
      "properties": {
        "unit_id": "U02",
        "floor_id": "F02",
        "property_3d_id": "3D-CHN-P000001-B01-F02-U02",
        "area_sqm": 75.0,
        "z_min": 3.2,
        "z_max": 6.4,
        "volume_m3": 240.0,
        "data_status": "DEMO / SYNTHETIC"
      },
      "geometry": {
        "type": "Polygon",
        "coordinates": [
          [
            [
              80.20842446653515,
              13.0866101546347
            ],
            [
              80.2086698577736,
              13.0866101546347
            ],
            [
              80.2086698577736,
              13.0868950626255
            ],
            [
              80.20842446653515,
              13.0868950626255
            ],
            [
              80.20842446653515,
              13.0866101546347
            ]
          ]
        ]
      }
    },
    {
      "type": "Feature",
      "properties": {
        "unit_id": "U03",
        "floor_id": "F02",
        "property_3d_id": "3D-CHN-P000001-B01-F02-U03",
        "area_sqm": 75.0,
        "z_min": 3.2,
        "z_max": 6.4,
        "volume_m3": 240.0,
        "data_status": "DEMO / SYNTHETIC"
      },
      "geometry": {
        "type": "Polygon",
        "coordinates": [
          [
            [
              80.2081790752967,
              13.0868950626255
            ],
            [
              80.20842446653515,
              13.0868950626255
            ],
            [
              80.20842446653515,
              13.0871799706163
            ],
            [
              80.2081790752967,
              13.0871799706163
            ],
            [
              80.2081790752967,
              13.0868950626255
            ]
          ]
        ]
      }
    },
    {
      "type": "Feature",
      "properties": {
        "unit_id": "U04",
        "floor_id": "F02",
        "property_3d_id": "3D-CHN-P000001-B01-F02-U04",
        "area_sqm": 75.0,
        "z_min": 3.2,
        "z_max": 6.4,
        "volume_m3": 240.0,
        "data_status": "DEMO / SYNTHETIC"
      },
      "geometry": {
        "type": "Polygon",
        "coordinates": [
          [
            [
              80.20842446653515,
              13.0868950626255
            ],
            [
              80.2086698577736,
              13.0868950626255
            ],
            [
              80.2086698577736,
              13.0871799706163
            ],
            [
              80.20842446653515,
              13.0871799706163
            ],
            [
              80.20842446653515,
              13.0868950626255
            ]
          ]
        ]
      }
    },
    {
      "type": "Feature",
      "properties": {
        "unit_id": "U01",
        "floor_id": "F03",
        "property_3d_id": "3D-CHN-P000001-B01-F03-U01",
        "area_sqm": 75.0,
        "z_min": 6.4,
        "z_max": 9.600000000000001,
        "volume_m3": 240.0,
        "data_status": "DEMO / SYNTHETIC"
      },
      "geometry": {
        "type": "Polygon",
        "coordinates": [
          [
            [
              80.2081790752967,
              13.0866101546347
            ],
            [
              80.20842446653515,
              13.0866101546347
            ],
            [
              80.20842446653515,
              13.0868950626255
            ],
            [
              80.2081790752967,
              13.0868950626255
            ],
            [
              80.2081790752967,
              13.0866101546347
            ]
          ]
        ]
      }
    },
    {
      "type": "Feature",
      "properties": {
        "unit_id": "U02",
        "floor_id": "F03",
        "property_3d_id": "3D-CHN-P000001-B01-F03-U02",
        "area_sqm": 75.0,
        "z_min": 6.4,
        "z_max": 9.600000000000001,
        "volume_m3": 240.0,
        "data_status": "DEMO / SYNTHETIC"
      },
      "geometry": {
        "type": "Polygon",
        "coordinates": [
          [
            [
              80.20842446653515,
              13.0866101546347
            ],
            [
              80.2086698577736,
              13.0866101546347
            ],
            [
              80.2086698577736,
              13.0868950626255
            ],
            [
              80.20842446653515,
              13.0868950626255
            ],
            [
              80.20842446653515,
              13.0866101546347
            ]
          ]
        ]
      }
    },
    {
      "type": "Feature",
      "properties": {
        "unit_id": "U03",
        "floor_id": "F03",
        "property_3d_id": "3D-CHN-P000001-B01-F03-U03",
        "area_sqm": 75.0,
        "z_min": 6.4,
        "z_max": 9.600000000000001,
        "volume_m3": 240.0,
        "data_status": "DEMO / SYNTHETIC"
      },
      "geometry": {
        "type": "Polygon",
        "coordinates": [
          [
            [
              80.2081790752967,
              13.0868950626255
            ],
            [
              80.20842446653515,
              13.0868950626255
            ],
            [
              80.20842446653515,
              13.0871799706163
            ],
            [
              80.2081790752967,
              13.0871799706163
            ],
            [
              80.2081790752967,
              13.0868950626255
            ]
          ]
        ]
      }
    },
    {
      "type": "Feature",
      "properties": {
        "unit_id": "U04",
        "floor_id": "F03",
        "property_3d_id": "3D-CHN-P000001-B01-F03-U04",
        "area_sqm": 75.0,
        "z_min": 6.4,
        "z_max": 9.600000000000001,
        "volume_m3": 240.0,
        "data_status": "DEMO / SYNTHETIC"
      },
      "geometry": {
        "type": "Polygon",
        "coordinates": [
          [
            [
              80.20842446653515,
              13.0868950626255
            ],
            [
              80.2086698577736,
              13.0868950626255
            ],
            [
              80.2086698577736,
              13.0871799706163
            ],
            [
              80.20842446653515,
              13.0871799706163
            ],
            [
              80.20842446653515,
              13.0868950626255
            ]
          ]
        ]
      }
    },
    {
      "type": "Feature",
      "properties": {
        "unit_id": "U01",
        "floor_id": "F04",
        "property_3d_id": "3D-CHN-P000001-B01-F04-U01",
        "area_sqm": 75.0,
        "z_min": 9.600000000000001,
        "z_max": 12.8,
        "volume_m3": 240.0,
        "data_status": "DEMO / SYNTHETIC"
      },
      "geometry": {
        "type": "Polygon",
        "coordinates": [
          [
            [
              80.2081790752967,
              13.0866101546347
            ],
            [
              80.20842446653515,
              13.0866101546347
            ],
            [
              80.20842446653515,
              13.0868950626255
            ],
            [
              80.2081790752967,
              13.0868950626255
            ],
            [
              80.2081790752967,
              13.0866101546347
            ]
          ]
        ]
      }
    },
    {
      "type": "Feature",
      "properties": {
        "unit_id": "U02",
        "floor_id": "F04",
        "property_3d_id": "3D-CHN-P000001-B01-F04-U02",
        "area_sqm": 75.0,
        "z_min": 9.600000000000001,
        "z_max": 12.8,
        "volume_m3": 240.0,
        "data_status": "DEMO / SYNTHETIC"
      },
      "geometry": {
        "type": "Polygon",
        "coordinates": [
          [
            [
              80.20842446653515,
              13.0866101546347
            ],
            [
              80.2086698577736,
              13.0866101546347
            ],
            [
              80.2086698577736,
              13.0868950626255
            ],
            [
              80.20842446653515,
              13.0868950626255
            ],
            [
              80.20842446653515,
              13.0866101546347
            ]
          ]
        ]
      }
    },
    {
      "type": "Feature",
      "properties": {
        "unit_id": "U03",
        "floor_id": "F04",
        "property_3d_id": "3D-CHN-P000001-B01-F04-U03",
        "area_sqm": 75.0,
        "z_min": 9.600000000000001,
        "z_max": 12.8,
        "volume_m3": 240.0,
        "data_status": "DEMO / SYNTHETIC"
      },
      "geometry": {
        "type": "Polygon",
        "coordinates": [
          [
            [
              80.2081790752967,
              13.0868950626255
            ],
            [
              80.20842446653515,
              13.0868950626255
            ],
            [
              80.20842446653515,
              13.0871799706163
            ],
            [
              80.2081790752967,
              13.0871799706163
            ],
            [
              80.2081790752967,
              13.0868950626255
            ]
          ]
        ]
      }
    },
    {
      "type": "Feature",
      "properties": {
        "unit_id": "U04",
        "floor_id": "F04",
        "property_3d_id": "3D-CHN-P000001-B01-F04-U04",
        "area_sqm": 75.0,
        "z_min": 9.600000000000001,
        "z_max": 12.8,
        "volume_m3": 240.0,
        "data_status": "DEMO / SYNTHETIC"
      },
      "geometry": {
        "type": "Polygon",
        "coordinates": [
          [
            [
              80.20842446653515,
              13.0868950626255
            ],
            [
              80.2086698577736,
              13.0868950626255
            ],
            [
              80.2086698577736,
              13.0871799706163
            ],
            [
              80.20842446653515,
              13.0871799706163
            ],
            [
              80.20842446653515,
              13.0868950626255
            ]
          ]
        ]
      }
    }
  ]
}