{
  "type": "FeatureCollection",
  "features": [
    {
      "type": "Feature",
      "properties": {
        "conflict_id": "C001",
        "type": "UTILITY INTERSECTION",
        "status": "CONFLICT DETECTED",
        "water_depth": "-2.5m to -1.5m",
        "sewer_depth": "-2.0m to -1.0m",
        "data_status": "DEMO / SYNTHETIC",
        "utility_1": "WATER-MAIN-001",
        "utility_2": "SEWER-SVC-B001"
      },
      "geometry": {
        "type": "Point",
        "coordinates": [
          80.20522914662604,
          13.0849503835059
        ]
      }
    }
  ]
}