{
  "type": "FeatureCollection",
  "features": [
    {
      "type": "Feature",
      "properties": {
        "floor_id": "B001-F01",
        "building_id": "B001",
        "parcel_id": "P000001",
        "floor_number": 1,
        "z_min": 0.0,
        "z_max": 3.2,
        "data_status": "DEMO / SYNTHETIC"
      },
      "geometry": {
        "type": "Polygon",
        "coordinates": [
          [
            [
              80.205035185996,
              13.0848503835059
            ],
            [
              80.20486535170281,
              13.0848545436748
            ],
            [
              80.2048631072852,
              13.084766497692101
            ],
            [
              80.2050329415176,
              13.0847623375212
            ],
            [
              80.205035185996,
              13.0848503835059
            ]
          ]
        ]
      }
    },
    {
      "type": "Feature",
      "properties": {
        "floor_id": "B001-F02",
        "building_id": "B001",
        "parcel_id": "P000001",
        "floor_number": 2,
        "z_min": 3.2,
        "z_max": 6.4,
        "data_status": "DEMO / SYNTHETIC"
      },
      "geometry": {
        "type": "Polygon",
        "coordinates": [
          [
            [
              80.205035185996,
              13.0848503835059
            ],
            [
              80.20486535170281,
              13.0848545436748
            ],
            [
              80.2048631072852,
              13.084766497692101
            ],
            [
              80.2050329415176,
              13.0847623375212
            ],
            [
              80.205035185996,
              13.0848503835059
            ]
          ]
        ]
      }
    },
    {
      "type": "Feature",
      "properties": {
        "floor_id": "B001-F03",
        "building_id": "B001",
        "parcel_id": "P000001",
        "floor_number": 3,
        "z_min": 6.4,
        "z_max": 9.600000000000001,
        "data_status": "DEMO / SYNTHETIC"
      },
      "geometry": {
        "type": "Polygon",
        "coordinates": [
          [
            [
              80.205035185996,
              13.0848503835059
            ],
            [
              80.20486535170281,
              13.0848545436748
            ],
            [
              80.2048631072852,
              13.084766497692101
            ],
            [
              80.2050329415176,
              13.0847623375212
            ],
            [
              80.205035185996,
              13.0848503835059
            ]
          ]
        ]
      }
    },
    {
      "type": "Feature",
      "properties": {
        "floor_id": "B001-F04",
        "building_id": "B001",
        "parcel_id": "P000001",
        "floor_number": 4,
        "z_min": 9.600000000000001,
        "z_max": 12.8,
        "data_status": "DEMO / SYNTHETIC"
      },
      "geometry": {
        "type": "Polygon",
        "coordinates": [
          [
            [
              80.205035185996,
              13.0848503835059
            ],
            [
              80.20486535170281,
              13.0848545436748
            ],
            [
              80.2048631072852,
              13.084766497692101
            ],
            [
              80.2050329415176,
              13.0847623375212
            ],
            [
              80.205035185996,
              13.0848503835059
            ]
          ]
        ]
      }
    },
    {
      "type": "Feature",
      "properties": {
        "floor_id": "B002-F01",
        "building_id": "B002",
        "parcel_id": "P000002",
        "floor_number": 1,
        "z_min": 0.0,
        "z_max": 3.2,
        "data_status": "DEMO / SYNTHETIC"
      },
      "geometry": {
        "type": "Polygon",
        "coordinates": [
          [
            [
              80.2048558260077,
              13.0848517487448
            ],
            [
              80.2046574740306,
              13.0848573034543
            ],
            [
              80.20465476399781,
              13.0847643123638
            ],
            [
              80.2048531159005,
              13.084758757652
            ],
            [
              80.2048558260077,
              13.0848517487448
            ]
          ]
        ]
      }
    },
    {
      "type": "Feature",
      "properties": {
        "floor_id": "B002-F02",
        "building_id": "B002",
        "parcel_id": "P000002",
        "floor_number": 2,
        "z_min": 3.2,
        "z_max": 6.4,
        "data_status": "DEMO / SYNTHETIC"
      },
      "geometry": {
        "type": "Polygon",
        "coordinates": [
          [
            [
              80.2048558260077,
              13.0848517487448
            ],
            [
              80.2046574740306,
              13.0848573034543
            ],
            [
              80.20465476399781,
              13.0847643123638
            ],
            [
              80.2048531159005,
              13.084758757652
            ],
            [
              80.2048558260077,
              13.0848517487448
            ]
          ]
        ]
      }
    },
    {
      "type": "Feature",
      "properties": {
        "floor_id": "B002-F03",
        "building_id": "B002",
        "parcel_id": "P000002",
        "floor_number": 3,
        "z_min": 6.4,
        "z_max": 9.600000000000001,
        "data_status": "DEMO / SYNTHETIC"
      },
      "geometry": {
        "type": "Polygon",
        "coordinates": [
          [
            [
              80.2048558260077,
              13.0848517487448
            ],
            [
              80.2046574740306,
              13.0848573034543
            ],
            [
              80.20465476399781,
              13.0847643123638
            ],
            [
              80.2048531159005,
              13.084758757652
            ],
            [
              80.2048558260077,
              13.0848517487448
            ]
          ]
        ]
      }
    },
    {
      "type": "Feature",
      "properties": {
        "floor_id": "B003-F01",
        "building_id": "B003",
        "parcel_id": "P000003",
        "floor_number": 1,
        "z_min": 0.0,
        "z_max": 3.2,
        "data_status": "DEMO / SYNTHETIC"
      },
      "geometry": {
        "type": "Polygon",
        "coordinates": [
          [
            [
              80.2050501127234,
              13.0845287985371
            ],
            [
              80.20505788482781,
              13.0847274237046
            ],
            [
              80.2049026110996,
              13.084733261986
            ],
            [
              80.20489483912,
              13.0845346368217
            ],
            [
              80.2050501127234,
              13.0845287985371
            ]
          ]
        ]
      }
    },
    {
      "type": "Feature",
      "properties": {
        "floor_id": "B003-F02",
        "building_id": "B003",
        "parcel_id": "P000003",
        "floor_number": 2,
        "z_min": 3.2,
        "z_max": 6.4,
        "data_status": "DEMO / SYNTHETIC"
      },
      "geometry": {
        "type": "Polygon",
        "coordinates": [
          [
            [
              80.2050501127234,
              13.0845287985371
            ],
            [
              80.20505788482781,
              13.0847274237046
            ],
            [
              80.2049026110996,
              13.084733261986
            ],
            [
              80.20489483912,
              13.0845346368217
            ],
            [
              80.2050501127234,
              13.0845287985371
            ]
          ]
        ]
      }
    },
    {
      "type": "Feature",
      "properties": {
        "floor_id": "B003-F03",
        "building_id": "B003",
        "parcel_id": "P000003",
        "floor_number": 3,
        "z_min": 6.4,
        "z_max": 9.600000000000001,
        "data_status": "DEMO / SYNTHETIC"
      },
      "geometry": {
        "type": "Polygon",
        "coordinates": [
          [
            [
              80.2050501127234,
              13.0845287985371
            ],
            [
              80.20505788482781,
              13.0847274237046
            ],
            [
              80.2049026110996,
              13.084733261986
            ],
            [
              80.20489483912,
              13.0845346368217
            ],
            [
              80.2050501127234,
              13.0845287985371
            ]
          ]
        ]
      }
    },
    {
      "type": "Feature",
      "properties": {
        "floor_id": "B004-F01",
        "building_id": "B004",
        "parcel_id": "P000004",
        "floor_number": 1,
        "z_min": 0.0,
        "z_max": 3.2,
        "data_status": "DEMO / SYNTHETIC"
      },
      "geometry": {
        "type": "Polygon",
        "coordinates": [
          [
            [
              80.2052408211873,
              13.084749533198801
            ],
            [
              80.20523961059921,
              13.0848379010604
            ],
            [
              80.2051159650545,
              13.0848362733592
            ],
            [
              80.20511717568681,
              13.084747905500901
            ],
            [
              80.2052408211873,
              13.084749533198801
            ]
          ]
        ]
      }
    },
    {
      "type": "Feature",
      "properties": {
        "floor_id": "B004-F02",
        "building_id": "B004",
        "parcel_id": "P000004",
        "floor_number": 2,
        "z_min": 3.2,
        "z_max": 6.4,
        "data_status": "DEMO / SYNTHETIC"
      },
      "geometry": {
        "type": "Polygon",
        "coordinates": [
          [
            [
              80.2052408211873,
              13.084749533198801
            ],
            [
              80.20523961059921,
              13.0848379010604
            ],
            [
              80.2051159650545,
              13.0848362733592
            ],
            [
              80.20511717568681,
              13.084747905500901
            ],
            [
              80.2052408211873,
              13.084749533198801
            ]
          ]
        ]
      }
    },
    {
      "type": "Feature",
      "properties": {
        "floor_id": "B004-F03",
        "building_id": "B004",
        "parcel_id": "P000004",
        "floor_number": 3,
        "z_min": 6.4,
        "z_max": 9.600000000000001,
        "data_status": "DEMO / SYNTHETIC"
      },
      "geometry": {
        "type": "Polygon",
        "coordinates": [
          [
            [
              80.2052408211873,
              13.084749533198801
            ],
            [
              80.20523961059921,
              13.0848379010604
            ],
            [
              80.2051159650545,
              13.0848362733592
            ],
            [
              80.20511717568681,
              13.084747905500901
            ],
            [
              80.2052408211873,
              13.084749533198801
            ]
          ]
        ]
      }
    },
    {
      "type": "Feature",
      "properties": {
        "floor_id": "B004-F04",
        "building_id": "B004",
        "parcel_id": "P000004",
        "floor_number": 4,
        "z_min": 9.600000000000001,
        "z_max": 12.8,
        "data_status": "DEMO / SYNTHETIC"
      },
      "geometry": {
        "type": "Polygon",
        "coordinates": [
          [
            [
              80.2052408211873,
              13.084749533198801
            ],
            [
              80.20523961059921,
              13.0848379010604
            ],
            [
              80.2051159650545,
              13.0848362733592
            ],
            [
              80.20511717568681,
              13.084747905500901
            ],
            [
              80.2052408211873,
              13.084749533198801
            ]
          ]
        ]
      }
    },
    {
      "type": "Feature",
      "properties": {
        "floor_id": "B005-F01",
        "building_id": "B005",
        "parcel_id": "P000005",
        "floor_number": 1,
        "z_min": 0.0,
        "z_max": 3.2,
        "data_status": "DEMO / SYNTHETIC"
      },
      "geometry": {
        "type": "Polygon",
        "coordinates": [
          [
            [
              80.20485526655361,
              13.0847073759798
            ],
            [
              80.2047685472789,
              13.0847112585461
            ],
            [
              80.20476960262211,
              13.0847339090731
            ],
            [
              80.20470708701271,
              13.0847367079822
            ],
            [
              80.20470050772741,
              13.084595497889401
            ],
            [
              80.20484974253391,
              13.0845888164129
            ],
            [
              80.20485526655361,
              13.0847073759798
            ]
          ]
        ]
      }
    },
    {
      "type": "Feature",
      "properties": {
        "floor_id": "B005-F02",
        "building_id": "B005",
        "parcel_id": "P000005",
        "floor_number": 2,
        "z_min": 3.2,
        "z_max": 6.4,
        "data_status": "DEMO / SYNTHETIC"
      },
      "geometry": {
        "type": "Polygon",
        "coordinates": [
          [
            [
              80.20485526655361,
              13.0847073759798
            ],
            [
              80.2047685472789,
              13.0847112585461
            ],
            [
              80.20476960262211,
              13.0847339090731
            ],
            [
              80.20470708701271,
              13.0847367079822
            ],
            [
              80.20470050772741,
              13.084595497889401
            ],
            [
              80.20484974253391,
              13.0845888164129
            ],
            [
              80.20485526655361,
              13.0847073759798
            ]
          ]
        ]
      }
    },
    {
      "type": "Feature",
      "properties": {
        "floor_id": "B005-F03",
        "building_id": "B005",
        "parcel_id": "P000005",
        "floor_number": 3,
        "z_min": 6.4,
        "z_max": 9.600000000000001,
        "data_status": "DEMO / SYNTHETIC"
      },
      "geometry": {
        "type": "Polygon",
        "coordinates": [
          [
            [
              80.20485526655361,
              13.0847073759798
            ],
            [
              80.2047685472789,
              13.0847112585461
            ],
            [
              80.20476960262211,
              13.0847339090731
            ],
            [
              80.20470708701271,
              13.0847367079822
            ],
            [
              80.20470050772741,
              13.084595497889401
            ],
            [
              80.20484974253391,
              13.0845888164129
            ],
            [
              80.20485526655361,
              13.0847073759798
            ]
          ]
        ]
      }
    },
    {
      "type": "Feature",
      "properties": {
        "floor_id": "B005-F04",
        "building_id": "B005",
        "parcel_id": "P000005",
        "floor_number": 4,
        "z_min": 9.600000000000001,
        "z_max": 12.8,
        "data_status": "DEMO / SYNTHETIC"
      },
      "geometry": {
        "type": "Polygon",
        "coordinates": [
          [
            [
              80.20485526655361,
              13.0847073759798
            ],
            [
              80.2047685472789,
              13.0847112585461
            ],
            [
              80.20476960262211,
              13.0847339090731
            ],
            [
              80.20470708701271,
              13.0847367079822
            ],
            [
              80.20470050772741,
              13.084595497889401
            ],
            [
              80.20484974253391,
              13.0845888164129
            ],
            [
              80.20485526655361,
              13.0847073759798
            ]
          ]
        ]
      }
    },
    {
      "type": "Feature",
      "properties": {
        "floor_id": "B006-F01",
        "building_id": "B006",
        "parcel_id": "P000006",
        "floor_number": 1,
        "z_min": 0.0,
        "z_max": 3.2,
        "data_status": "DEMO / SYNTHETIC"
      },
      "geometry": {
        "type": "Polygon",
        "coordinates": [
          [
            [
              80.20517822560831,
              13.0845482624207
            ],
            [
              80.2051770725724,
              13.0847258567204
            ],
            [
              80.2050524200657,
              13.084725079007
            ],
            [
              80.20505357319091,
              13.0845474847133
            ],
            [
              80.20517822560831,
              13.0845482624207
            ]
          ]
        ]
      }
    },
    {
      "type": "Feature",
      "properties": {
        "floor_id": "B006-F02",
        "building_id": "B006",
        "parcel_id": "P000006",
        "floor_number": 2,
        "z_min": 3.2,
        "z_max": 6.4,
        "data_status": "DEMO / SYNTHETIC"
      },
      "geometry": {
        "type": "Polygon",
        "coordinates": [
          [
            [
              80.20517822560831,
              13.0845482624207
            ],
            [
              80.2051770725724,
              13.0847258567204
            ],
            [
              80.2050524200657,
              13.084725079007
            ],
            [
              80.20505357319091,
              13.0845474847133
            ],
            [
              80.20517822560831,
              13.0845482624207
            ]
          ]
        ]
      }
    },
    {
      "type": "Feature",
      "properties": {
        "floor_id": "B006-F03",
        "building_id": "B006",
        "parcel_id": "P000006",
        "floor_number": 3,
        "z_min": 6.4,
        "z_max": 9.600000000000001,
        "data_status": "DEMO / SYNTHETIC"
      },
      "geometry": {
        "type": "Polygon",
        "coordinates": [
          [
            [
              80.20517822560831,
              13.0845482624207
            ],
            [
              80.2051770725724,
              13.0847258567204
            ],
            [
              80.2050524200657,
              13.084725079007
            ],
            [
              80.20505357319091,
              13.0845474847133
            ],
            [
              80.20517822560831,
              13.0845482624207
            ]
          ]
        ]
      }
    },
    {
      "type": "Feature",
      "properties": {
        "floor_id": "B007-F01",
        "building_id": "B007",
        "parcel_id": "P000007",
        "floor_number": 1,
        "z_min": 0.0,
        "z_max": 3.2,
        "data_status": "DEMO / SYNTHETIC"
      },
      "geometry": {
        "type": "Polygon",
        "coordinates": [
          [
            [
              80.2053637477144,
              13.0847511513732
            ],
            [
              80.2053625371701,
              13.0848395192381
            ],
            [
              80.20523961059921,
              13.0848379010603
            ],
            [
              80.2052408211873,
              13.0847495331987
            ],
            [
              80.2053637477144,
              13.0847511513732
            ]
          ]
        ]
      }
    },
    {
      "type": "Feature",
      "properties": {
        "floor_id": "B007-F02",
        "building_id": "B007",
        "parcel_id": "P000007",
        "floor_number": 2,
        "z_min": 3.2,
        "z_max": 6.4,
        "data_status": "DEMO / SYNTHETIC"
      },
      "geometry": {
        "type": "Polygon",
        "coordinates": [
          [
            [
              80.2053637477144,
              13.0847511513732
            ],
            [
              80.2053625371701,
              13.0848395192381
            ],
            [
              80.20523961059921,
              13.0848379010603
            ],
            [
              80.2052408211873,
              13.0847495331987
            ],
            [
              80.2053637477144,
              13.0847511513732
            ]
          ]
        ]
      }
    },
    {
      "type": "Feature",
      "properties": {
        "floor_id": "B007-F03",
        "building_id": "B007",
        "parcel_id": "P000007",
        "floor_number": 3,
        "z_min": 6.4,
        "z_max": 9.600000000000001,
        "data_status": "DEMO / SYNTHETIC"
      },
      "geometry": {
        "type": "Polygon",
        "coordinates": [
          [
            [
              80.2053637477144,
              13.0847511513732
            ],
            [
              80.2053625371701,
              13.0848395192381
            ],
            [
              80.20523961059921,
              13.0848379010603
            ],
            [
              80.2052408211873,
              13.0847495331987
            ],
            [
              80.2053637477144,
              13.0847511513732
            ]
          ]
        ]
      }
    },
    {
      "type": "Feature",
      "properties": {
        "floor_id": "B007-F04",
        "building_id": "B007",
        "parcel_id": "P000007",
        "floor_number": 4,
        "z_min": 9.600000000000001,
        "z_max": 12.8,
        "data_status": "DEMO / SYNTHETIC"
      },
      "geometry": {
        "type": "Polygon",
        "coordinates": [
          [
            [
              80.2053637477144,
              13.0847511513732
            ],
            [
              80.2053625371701,
              13.0848395192381
            ],
            [
              80.20523961059921,
              13.0848379010603
            ],
            [
              80.2052408211873,
              13.0847495331987
            ],
            [
              80.2053637477144,
              13.0847511513732
            ]
          ]
        ]
      }
    },
    {
      "type": "Feature",
      "properties": {
        "floor_id": "B008-F01",
        "building_id": "B008",
        "parcel_id": "P000008",
        "floor_number": 1,
        "z_min": 0.0,
        "z_max": 3.2,
        "data_status": "DEMO / SYNTHETIC"
      },
      "geometry": {
        "type": "Polygon",
        "coordinates": [
          [
            [
              80.2046381257548,
              13.0847414542036
            ],
            [
              80.20452920352061,
              13.0847484255709
            ],
            [
              80.2045177716197,
              13.0845767910302
            ],
            [
              80.20462669377811,
              13.0845698196635
            ],
            [
              80.2046381257548,
              13.0847414542036
            ]
          ]
        ]
      }
    },
    {
      "type": "Feature",
      "properties": {
        "floor_id": "B008-F02",
        "building_id": "B008",
        "parcel_id": "P000008",
        "floor_number": 2,
        "z_min": 3.2,
        "z_max": 6.4,
        "data_status": "DEMO / SYNTHETIC"
      },
      "geometry": {
        "type": "Polygon",
        "coordinates": [
          [
            [
              80.2046381257548,
              13.0847414542036
            ],
            [
              80.20452920352061,
              13.0847484255709
            ],
            [
              80.2045177716197,
              13.0845767910302
            ],
            [
              80.20462669377811,
              13.0845698196635
            ],
            [
              80.2046381257548,
              13.0847414542036
            ]
          ]
        ]
      }
    },
    {
      "type": "Feature",
      "properties": {
        "floor_id": "B009-F01",
        "building_id": "B009",
        "parcel_id": "P000009",
        "floor_number": 1,
        "z_min": 0.0,
        "z_max": 3.2,
        "data_status": "DEMO / SYNTHETIC"
      },
      "geometry": {
        "type": "Polygon",
        "coordinates": [
          [
            [
              80.2049808113999,
              13.085320650433701
            ],
            [
              80.2048600813939,
              13.0853262045667
            ],
            [
              80.204867598711,
              13.0854832219621
            ],
            [
              80.2048089781146,
              13.0854859187552
            ],
            [
              80.2047990032943,
              13.085277569324
            ],
            [
              80.2048270186666,
              13.0852762804997
            ],
            [
              80.20482482054841,
              13.0852303673179
            ],
            [
              80.2049761556734,
              13.0852234052148
            ],
            [
              80.2049808113999,
              13.085320650433701
            ]
          ]
        ]
      }
    },
    {
      "type": "Feature",
      "properties": {
        "floor_id": "B009-F02",
        "building_id": "B009",
        "parcel_id": "P000009",
        "floor_number": 2,
        "z_min": 3.2,
        "z_max": 6.4,
        "data_status": "DEMO / SYNTHETIC"
      },
      "geometry": {
        "type": "Polygon",
        "coordinates": [
          [
            [
              80.2049808113999,
              13.085320650433701
            ],
            [
              80.2048600813939,
              13.0853262045667
            ],
            [
              80.204867598711,
              13.0854832219621
            ],
            [
              80.2048089781146,
              13.0854859187552
            ],
            [
              80.2047990032943,
              13.085277569324
            ],
            [
              80.2048270186666,
              13.0852762804997
            ],
            [
              80.20482482054841,
              13.0852303673179
            ],
            [
              80.2049761556734,
              13.0852234052148
            ],
            [
              80.2049808113999,
              13.085320650433701
            ]
          ]
        ]
      }
    },
    {
      "type": "Feature",
      "properties": {
        "floor_id": "B010-F01",
        "building_id": "B010",
        "parcel_id": "P000010",
        "floor_number": 1,
        "z_min": 0.0,
        "z_max": 3.2,
        "data_status": "DEMO / SYNTHETIC"
      },
      "geometry": {
        "type": "Polygon",
        "coordinates": [
          [
            [
              80.20498228309191,
              13.0853884498477
            ],
            [
              80.2049843830938,
              13.0854442498476
            ],
            [
              80.2048654830956,
              13.0854484498515
            ],
            [
              80.2048608830914,
              13.0853228498516
            ],
            [
              80.2049797830895,
              13.0853186498478
            ],
            [
              80.20498228309191,
              13.0853884498477
            ]
          ]
        ]
      }
    },
    {
      "type": "Feature",
      "properties": {
        "floor_id": "B010-F02",
        "building_id": "B010",
        "parcel_id": "P000010",
        "floor_number": 2,
        "z_min": 3.2,
        "z_max": 6.4,
        "data_status": "DEMO / SYNTHETIC"
      },
      "geometry": {
        "type": "Polygon",
        "coordinates": [
          [
            [
              80.20498228309191,
              13.0853884498477
            ],
            [
              80.2049843830938,
              13.0854442498476
            ],
            [
              80.2048654830956,
              13.0854484498515
            ],
            [
              80.2048608830914,
              13.0853228498516
            ],
            [
              80.2049797830895,
              13.0853186498478
            ],
            [
              80.20498228309191,
              13.0853884498477
            ]
          ]
        ]
      }
    },
    {
      "type": "Feature",
      "properties": {
        "floor_id": "B010-F03",
        "building_id": "B010",
        "parcel_id": "P000010",
        "floor_number": 3,
        "z_min": 6.4,
        "z_max": 9.600000000000001,
        "data_status": "DEMO / SYNTHETIC"
      },
      "geometry": {
        "type": "Polygon",
        "coordinates": [
          [
            [
              80.20498228309191,
              13.0853884498477
            ],
            [
              80.2049843830938,
              13.0854442498476
            ],
            [
              80.2048654830956,
              13.0854484498515
            ],
            [
              80.2048608830914,
              13.0853228498516
            ],
            [
              80.2049797830895,
              13.0853186498478
            ],
            [
              80.20498228309191,
              13.0853884498477
            ]
          ]
        ]
      }
    },
    {
      "type": "Feature",
      "properties": {
        "floor_id": "B010-F04",
        "building_id": "B010",
        "parcel_id": "P000010",
        "floor_number": 4,
        "z_min": 9.600000000000001,
        "z_max": 12.8,
        "data_status": "DEMO / SYNTHETIC"
      },
      "geometry": {
        "type": "Polygon",
        "coordinates": [
          [
            [
              80.20498228309191,
              13.0853884498477
            ],
            [
              80.2049843830938,
              13.0854442498476
            ],
            [
              80.2048654830956,
              13.0854484498515
            ],
            [
              80.2048608830914,
              13.0853228498516
            ],
            [
              80.2049797830895,
              13.0853186498478
            ],
            [
              80.20498228309191,
              13.0853884498477
            ]
          ]
        ]
      }
    },
    {
      "type": "Feature",
      "properties": {
        "floor_id": "B010-F05",
        "building_id": "B010",
        "parcel_id": "P000010",
        "floor_number": 5,
        "z_min": 12.8,
        "z_max": 16.0,
        "data_status": "DEMO / SYNTHETIC"
      },
      "geometry": {
        "type": "Polygon",
        "coordinates": [
          [
            [
              80.20498228309191,
              13.0853884498477
            ],
            [
              80.2049843830938,
              13.0854442498476
            ],
            [
              80.2048654830956,
              13.0854484498515
            ],
            [
              80.2048608830914,
              13.0853228498516
            ],
            [
              80.2049797830895,
              13.0853186498478
            ],
            [
              80.20498228309191,
              13.0853884498477
            ]
          ]
        ]
      }
    },
    {
      "type": "Feature",
      "properties": {
        "floor_id": "B011-F01",
        "building_id": "B011",
        "parcel_id": "P000011",
        "floor_number": 1,
        "z_min": 0.0,
        "z_max": 3.2,
        "data_status": "DEMO / SYNTHETIC"
      },
      "geometry": {
        "type": "Polygon",
        "coordinates": [
          [
            [
              80.2053886743136,
              13.084515607846301
            ],
            [
              80.2053961529144,
              13.0847087933633
            ],
            [
              80.2052495951426,
              13.0847142451337
            ],
            [
              80.20524211665631,
              13.0845210596191
            ],
            [
              80.2053886743136,
              13.084515607846301
            ]
          ]
        ]
      }
    },
    {
      "type": "Feature",
      "properties": {
        "floor_id": "B011-F02",
        "building_id": "B011",
        "parcel_id": "P000011",
        "floor_number": 2,
        "z_min": 3.2,
        "z_max": 6.4,
        "data_status": "DEMO / SYNTHETIC"
      },
      "geometry": {
        "type": "Polygon",
        "coordinates": [
          [
            [
              80.2053886743136,
              13.084515607846301
            ],
            [
              80.2053961529144,
              13.0847087933633
            ],
            [
              80.2052495951426,
              13.0847142451337
            ],
            [
              80.20524211665631,
              13.0845210596191
            ],
            [
              80.2053886743136,
              13.084515607846301
            ]
          ]
        ]
      }
    },
    {
      "type": "Feature",
      "properties": {
        "floor_id": "B012-F01",
        "building_id": "B012",
        "parcel_id": "P000012",
        "floor_number": 1,
        "z_min": 0.0,
        "z_max": 3.2,
        "data_status": "DEMO / SYNTHETIC"
      },
      "geometry": {
        "type": "Polygon",
        "coordinates": [
          [
            [
              80.2047997734573,
              13.0852780766433
            ],
            [
              80.2048061118539,
              13.085450585161201
            ],
            [
              80.20466901926581,
              13.0854554253593
            ],
            [
              80.2046626809647,
              13.0852829168438
            ],
            [
              80.2047997734573,
              13.0852780766433
            ]
          ]
        ]
      }
    },
    {
      "type": "Feature",
      "properties": {
        "floor_id": "B012-F02",
        "building_id": "B012",
        "parcel_id": "P000012",
        "floor_number": 2,
        "z_min": 3.2,
        "z_max": 6.4,
        "data_status": "DEMO / SYNTHETIC"
      },
      "geometry": {
        "type": "Polygon",
        "coordinates": [
          [
            [
              80.2047997734573,
              13.0852780766433
            ],
            [
              80.2048061118539,
              13.085450585161201
            ],
            [
              80.20466901926581,
              13.0854554253593
            ],
            [
              80.2046626809647,
              13.0852829168438
            ],
            [
              80.2047997734573,
              13.0852780766433
            ]
          ]
        ]
      }
    },
    {
      "type": "Feature",
      "properties": {
        "floor_id": "B012-F03",
        "building_id": "B012",
        "parcel_id": "P000012",
        "floor_number": 3,
        "z_min": 6.4,
        "z_max": 9.600000000000001,
        "data_status": "DEMO / SYNTHETIC"
      },
      "geometry": {
        "type": "Polygon",
        "coordinates": [
          [
            [
              80.2047997734573,
              13.0852780766433
            ],
            [
              80.2048061118539,
              13.085450585161201
            ],
            [
              80.20466901926581,
              13.0854554253593
            ],
            [
              80.2046626809647,
              13.0852829168438
            ],
            [
              80.2047997734573,
              13.0852780766433
            ]
          ]
        ]
      }
    },
    {
      "type": "Feature",
      "properties": {
        "floor_id": "B012-F04",
        "building_id": "B012",
        "parcel_id": "P000012",
        "floor_number": 4,
        "z_min": 9.600000000000001,
        "z_max": 12.8,
        "data_status": "DEMO / SYNTHETIC"
      },
      "geometry": {
        "type": "Polygon",
        "coordinates": [
          [
            [
              80.2047997734573,
              13.0852780766433
            ],
            [
              80.2048061118539,
              13.085450585161201
            ],
            [
              80.20466901926581,
              13.0854554253593
            ],
            [
              80.2046626809647,
              13.0852829168438
            ],
            [
              80.2047997734573,
              13.0852780766433
            ]
          ]
        ]
      }
    },
    {
      "type": "Feature",
      "properties": {
        "floor_id": "B013-F01",
        "building_id": "B013",
        "parcel_id": "P000013",
        "floor_number": 1,
        "z_min": 0.0,
        "z_max": 3.2,
        "data_status": "DEMO / SYNTHETIC"
      },
      "geometry": {
        "type": "Polygon",
        "coordinates": [
          [
            [
              80.20451298306611,
              13.0846714498452
            ],
            [
              80.2044691830667,
              13.0846697498466
            ],
            [
              80.2044658830696,
              13.0847529498467
            ],
            [
              80.20433708307131,
              13.0847479498509
            ],
            [
              80.20434408306521,
              13.0845729498507
            ],
            [
              80.2045166830629,
              13.0845796498451
            ],
            [
              80.20451298306611,
              13.0846714498452
            ]
          ]
        ]
      }
    },
    {
      "type": "Feature",
      "properties": {
        "floor_id": "B013-F02",
        "building_id": "B013",
        "parcel_id": "P000013",
        "floor_number": 2,
        "z_min": 3.2,
        "z_max": 6.4,
        "data_status": "DEMO / SYNTHETIC"
      },
      "geometry": {
        "type": "Polygon",
        "coordinates": [
          [
            [
              80.20451298306611,
              13.0846714498452
            ],
            [
              80.2044691830667,
              13.0846697498466
            ],
            [
              80.2044658830696,
              13.0847529498467
            ],
            [
              80.20433708307131,
              13.0847479498509
            ],
            [
              80.20434408306521,
              13.0845729498507
            ],
            [
              80.2045166830629,
              13.0845796498451
            ],
            [
              80.20451298306611,
              13.0846714498452
            ]
          ]
        ]
      }
    },
    {
      "type": "Feature",
      "properties": {
        "floor_id": "B014-F01",
        "building_id": "B014",
        "parcel_id": "P000014",
        "floor_number": 1,
        "z_min": 0.0,
        "z_max": 3.2,
        "data_status": "DEMO / SYNTHETIC"
      },
      "geometry": {
        "type": "Polygon",
        "coordinates": [
          [
            [
              80.2048545830432,
              13.084264149825
            ],
            [
              80.20485038304591,
              13.0843402498252
            ],
            [
              80.2048147830463,
              13.0843383498263
            ],
            [
              80.204812283048,
              13.0843848498264
            ],
            [
              80.2047537830487,
              13.0843817498283
            ],
            [
              80.2047562830471,
              13.0843353498283
            ],
            [
              80.2047249830475,
              13.0843336498293
            ],
            [
              80.2047291830448,
              13.0842575498291
            ],
            [
              80.2048545830432,
              13.084264149825
            ]
          ]
        ]
      }
    },
    {
      "type": "Feature",
      "properties": {
        "floor_id": "B014-F02",
        "building_id": "B014",
        "parcel_id": "P000014",
        "floor_number": 2,
        "z_min": 3.2,
        "z_max": 6.4,
        "data_status": "DEMO / SYNTHETIC"
      },
      "geometry": {
        "type": "Polygon",
        "coordinates": [
          [
            [
              80.2048545830432,
              13.084264149825
            ],
            [
              80.20485038304591,
              13.0843402498252
            ],
            [
              80.2048147830463,
              13.0843383498263
            ],
            [
              80.204812283048,
              13.0843848498264
            ],
            [
              80.2047537830487,
              13.0843817498283
            ],
            [
              80.2047562830471,
              13.0843353498283
            ],
            [
              80.2047249830475,
              13.0843336498293
            ],
            [
              80.2047291830448,
              13.0842575498291
            ],
            [
              80.2048545830432,
              13.084264149825
            ]
          ]
        ]
      }
    },
    {
      "type": "Feature",
      "properties": {
        "floor_id": "B014-F03",
        "building_id": "B014",
        "parcel_id": "P000014",
        "floor_number": 3,
        "z_min": 6.4,
        "z_max": 9.600000000000001,
        "data_status": "DEMO / SYNTHETIC"
      },
      "geometry": {
        "type": "Polygon",
        "coordinates": [
          [
            [
              80.2048545830432,
              13.084264149825
            ],
            [
              80.20485038304591,
              13.0843402498252
            ],
            [
              80.2048147830463,
              13.0843383498263
            ],
            [
              80.204812283048,
              13.0843848498264
            ],
            [
              80.2047537830487,
              13.0843817498283
            ],
            [
              80.2047562830471,
              13.0843353498283
            ],
            [
              80.2047249830475,
              13.0843336498293
            ],
            [
              80.2047291830448,
              13.0842575498291
            ],
            [
              80.2048545830432,
              13.084264149825
            ]
          ]
        ]
      }
    },
    {
      "type": "Feature",
      "properties": {
        "floor_id": "B015-F01",
        "building_id": "B015",
        "parcel_id": "P000015",
        "floor_number": 1,
        "z_min": 0.0,
        "z_max": 3.2,
        "data_status": "DEMO / SYNTHETIC"
      },
      "geometry": {
        "type": "Polygon",
        "coordinates": [
          [
            [
              80.2052886713347,
              13.0853066488292
            ],
            [
              80.20528990012501,
              13.0853262628483
            ],
            [
              80.20533677428341,
              13.085323441028
            ],
            [
              80.2053443736735,
              13.0854447425092
            ],
            [
              80.2052625517473,
              13.0854496681755
            ],
            [
              80.2052537236098,
              13.0853087526738
            ],
            [
              80.2052886713347,
              13.0853066488292
            ]
          ]
        ]
      }
    },
    {
      "type": "Feature",
      "properties": {
        "floor_id": "B015-F02",
        "building_id": "B015",
        "parcel_id": "P000015",
        "floor_number": 2,
        "z_min": 3.2,
        "z_max": 6.4,
        "data_status": "DEMO / SYNTHETIC"
      },
      "geometry": {
        "type": "Polygon",
        "coordinates": [
          [
            [
              80.2052886713347,
              13.0853066488292
            ],
            [
              80.20528990012501,
              13.0853262628483
            ],
            [
              80.20533677428341,
              13.085323441028
            ],
            [
              80.2053443736735,
              13.0854447425092
            ],
            [
              80.2052625517473,
              13.0854496681755
            ],
            [
              80.2052537236098,
              13.0853087526738
            ],
            [
              80.2052886713347,
              13.0853066488292
            ]
          ]
        ]
      }
    },
    {
      "type": "Feature",
      "properties": {
        "floor_id": "B016-F01",
        "building_id": "B016",
        "parcel_id": "P000016",
        "floor_number": 1,
        "z_min": 0.0,
        "z_max": 3.2,
        "data_status": "DEMO / SYNTHETIC"
      },
      "geometry": {
        "type": "Polygon",
        "coordinates": [
          [
            [
              80.2052058830433,
              13.0844134498135
            ],
            [
              80.2051199830444,
              13.0844098498163
            ],
            [
              80.2051275830382,
              13.0842322498161
            ],
            [
              80.205213483037,
              13.0842357498133
            ],
            [
              80.2052058830433,
              13.0844134498135
            ]
          ]
        ]
      }
    },
    {
      "type": "Feature",
      "properties": {
        "floor_id": "B016-F02",
        "building_id": "B016",
        "parcel_id": "P000016",
        "floor_number": 2,
        "z_min": 3.2,
        "z_max": 6.4,
        "data_status": "DEMO / SYNTHETIC"
      },
      "geometry": {
        "type": "Polygon",
        "coordinates": [
          [
            [
              80.2052058830433,
              13.0844134498135
            ],
            [
              80.2051199830444,
              13.0844098498163
            ],
            [
              80.2051275830382,
              13.0842322498161
            ],
            [
              80.205213483037,
              13.0842357498133
            ],
            [
              80.2052058830433,
              13.0844134498135
            ]
          ]
        ]
      }
    },
    {
      "type": "Feature",
      "properties": {
        "floor_id": "B017-F01",
        "building_id": "B017",
        "parcel_id": "P000017",
        "floor_number": 1,
        "z_min": 0.0,
        "z_max": 3.2,
        "data_status": "DEMO / SYNTHETIC"
      },
      "geometry": {
        "type": "Polygon",
        "coordinates": [
          [
            [
              80.204365920583,
              13.0848977885887
            ],
            [
              80.2041572913474,
              13.0849057289835
            ],
            [
              80.2041524792058,
              13.0847842330927
            ],
            [
              80.2043611083389,
              13.084776292695
            ],
            [
              80.204365920583,
              13.0848977885887
            ]
          ]
        ]
      }
    },
    {
      "type": "Feature",
      "properties": {
        "floor_id": "B017-F02",
        "building_id": "B017",
        "parcel_id": "P000017",
        "floor_number": 2,
        "z_min": 3.2,
        "z_max": 6.4,
        "data_status": "DEMO / SYNTHETIC"
      },
      "geometry": {
        "type": "Polygon",
        "coordinates": [
          [
            [
              80.204365920583,
              13.0848977885887
            ],
            [
              80.2041572913474,
              13.0849057289835
            ],
            [
              80.2041524792058,
              13.0847842330927
            ],
            [
              80.2043611083389,
              13.084776292695
            ],
            [
              80.204365920583,
              13.0848977885887
            ]
          ]
        ]
      }
    },
    {
      "type": "Feature",
      "properties": {
        "floor_id": "B018-F01",
        "building_id": "B018",
        "parcel_id": "P000018",
        "floor_number": 1,
        "z_min": 0.0,
        "z_max": 3.2,
        "data_status": "DEMO / SYNTHETIC"
      },
      "geometry": {
        "type": "Polygon",
        "coordinates": [
          [
            [
              80.2050126758604,
              13.0855013303965
            ],
            [
              80.20501987599701,
              13.0856379632335
            ],
            [
              80.20487862467671,
              13.0856451157481
            ],
            [
              80.2048714246184,
              13.0855084829118
            ],
            [
              80.2050126758604,
              13.0855013303965
            ]
          ]
        ]
      }
    },
    {
      "type": "Feature",
      "properties": {
        "floor_id": "B018-F02",
        "building_id": "B018",
        "parcel_id": "P000018",
        "floor_number": 2,
        "z_min": 3.2,
        "z_max": 6.4,
        "data_status": "DEMO / SYNTHETIC"
      },
      "geometry": {
        "type": "Polygon",
        "coordinates": [
          [
            [
              80.2050126758604,
              13.0855013303965
            ],
            [
              80.20501987599701,
              13.0856379632335
            ],
            [
              80.20487862467671,
              13.0856451157481
            ],
            [
              80.2048714246184,
              13.0855084829118
            ],
            [
              80.2050126758604,
              13.0855013303965
            ]
          ]
        ]
      }
    },
    {
      "type": "Feature",
      "properties": {
        "floor_id": "B018-F03",
        "building_id": "B018",
        "parcel_id": "P000018",
        "floor_number": 3,
        "z_min": 6.4,
        "z_max": 9.600000000000001,
        "data_status": "DEMO / SYNTHETIC"
      },
      "geometry": {
        "type": "Polygon",
        "coordinates": [
          [
            [
              80.2050126758604,
              13.0855013303965
            ],
            [
              80.20501987599701,
              13.0856379632335
            ],
            [
              80.20487862467671,
              13.0856451157481
            ],
            [
              80.2048714246184,
              13.0855084829118
            ],
            [
              80.2050126758604,
              13.0855013303965
            ]
          ]
        ]
      }
    },
    {
      "type": "Feature",
      "properties": {
        "floor_id": "B018-F04",
        "building_id": "B018",
        "parcel_id": "P000018",
        "floor_number": 4,
        "z_min": 9.600000000000001,
        "z_max": 12.8,
        "data_status": "DEMO / SYNTHETIC"
      },
      "geometry": {
        "type": "Polygon",
        "coordinates": [
          [
            [
              80.2050126758604,
              13.0855013303965
            ],
            [
              80.20501987599701,
              13.0856379632335
            ],
            [
              80.20487862467671,
              13.0856451157481
            ],
            [
              80.2048714246184,
              13.0855084829118
            ],
            [
              80.2050126758604,
              13.0855013303965
            ]
          ]
        ]
      }
    },
    {
      "type": "Feature",
      "properties": {
        "floor_id": "B018-F05",
        "building_id": "B018",
        "parcel_id": "P000018",
        "floor_number": 5,
        "z_min": 12.8,
        "z_max": 16.0,
        "data_status": "DEMO / SYNTHETIC"
      },
      "geometry": {
        "type": "Polygon",
        "coordinates": [
          [
            [
              80.2050126758604,
              13.0855013303965
            ],
            [
              80.20501987599701,
              13.0856379632335
            ],
            [
              80.20487862467671,
              13.0856451157481
            ],
            [
              80.2048714246184,
              13.0855084829118
            ],
            [
              80.2050126758604,
              13.0855013303965
            ]
          ]
        ]
      }
    },
    {
      "type": "Feature",
      "properties": {
        "floor_id": "B019-F01",
        "building_id": "B019",
        "parcel_id": "P000019",
        "floor_number": 1,
        "z_min": 0.0,
        "z_max": 3.2,
        "data_status": "DEMO / SYNTHETIC"
      },
      "geometry": {
        "type": "Polygon",
        "coordinates": [
          [
            [
              80.2051276996082,
              13.085496692726
            ],
            [
              80.2051341757921,
              13.0856272699241
            ],
            [
              80.2050422482794,
              13.0856316509789
            ],
            [
              80.2050357721441,
              13.0855010737813
            ],
            [
              80.2051276996082,
              13.085496692726
            ]
          ]
        ]
      }
    },
    {
      "type": "Feature",
      "properties": {
        "floor_id": "B019-F02",
        "building_id": "B019",
        "parcel_id": "P000019",
        "floor_number": 2,
        "z_min": 3.2,
        "z_max": 6.4,
        "data_status": "DEMO / SYNTHETIC"
      },
      "geometry": {
        "type": "Polygon",
        "coordinates": [
          [
            [
              80.2051276996082,
              13.085496692726
            ],
            [
              80.2051341757921,
              13.0856272699241
            ],
            [
              80.2050422482794,
              13.0856316509789
            ],
            [
              80.2050357721441,
              13.0855010737813
            ],
            [
              80.2051276996082,
              13.085496692726
            ]
          ]
        ]
      }
    },
    {
      "type": "Feature",
      "properties": {
        "floor_id": "B019-F03",
        "building_id": "B019",
        "parcel_id": "P000019",
        "floor_number": 3,
        "z_min": 6.4,
        "z_max": 9.600000000000001,
        "data_status": "DEMO / SYNTHETIC"
      },
      "geometry": {
        "type": "Polygon",
        "coordinates": [
          [
            [
              80.2051276996082,
              13.085496692726
            ],
            [
              80.2051341757921,
              13.0856272699241
            ],
            [
              80.2050422482794,
              13.0856316509789
            ],
            [
              80.2050357721441,
              13.0855010737813
            ],
            [
              80.2051276996082,
              13.085496692726
            ]
          ]
        ]
      }
    },
    {
      "type": "Feature",
      "properties": {
        "floor_id": "B020-F01",
        "building_id": "B020",
        "parcel_id": "P000020",
        "floor_number": 1,
        "z_min": 0.0,
        "z_max": 3.2,
        "data_status": "DEMO / SYNTHETIC"
      },
      "geometry": {
        "type": "Polygon",
        "coordinates": [
          [
            [
              80.2048714246185,
              13.085508482912001
            ],
            [
              80.20487862467681,
              13.0856451157484
            ],
            [
              80.2047810236579,
              13.085650057906001
            ],
            [
              80.2047738236535,
              13.0855134250701
            ],
            [
              80.2048714246185,
              13.085508482912001
            ]
          ]
        ]
      }
    },
    {
      "type": "Feature",
      "properties": {
        "floor_id": "B020-F02",
        "building_id": "B020",
        "parcel_id": "P000020",
        "floor_number": 2,
        "z_min": 3.2,
        "z_max": 6.4,
        "data_status": "DEMO / SYNTHETIC"
      },
      "geometry": {
        "type": "Polygon",
        "coordinates": [
          [
            [
              80.2048714246185,
              13.085508482912001
            ],
            [
              80.20487862467681,
              13.0856451157484
            ],
            [
              80.2047810236579,
              13.085650057906001
            ],
            [
              80.2047738236535,
              13.0855134250701
            ],
            [
              80.2048714246185,
              13.085508482912001
            ]
          ]
        ]
      }
    },
    {
      "type": "Feature",
      "properties": {
        "floor_id": "B020-F03",
        "building_id": "B020",
        "parcel_id": "P000020",
        "floor_number": 3,
        "z_min": 6.4,
        "z_max": 9.600000000000001,
        "data_status": "DEMO / SYNTHETIC"
      },
      "geometry": {
        "type": "Polygon",
        "coordinates": [
          [
            [
              80.2048714246185,
              13.085508482912001
            ],
            [
              80.20487862467681,
              13.0856451157484
            ],
            [
              80.2047810236579,
              13.085650057906001
            ],
            [
              80.2047738236535,
              13.0855134250701
            ],
            [
              80.2048714246185,
              13.085508482912001
            ]
          ]
        ]
      }
    },
    {
      "type": "Feature",
      "properties": {
        "floor_id": "B020-F04",
        "building_id": "B020",
        "parcel_id": "P000020",
        "floor_number": 4,
        "z_min": 9.600000000000001,
        "z_max": 12.8,
        "data_status": "DEMO / SYNTHETIC"
      },
      "geometry": {
        "type": "Polygon",
        "coordinates": [
          [
            [
              80.2048714246185,
              13.085508482912001
            ],
            [
              80.20487862467681,
              13.0856451157484
            ],
            [
              80.2047810236579,
              13.085650057906001
            ],
            [
              80.2047738236535,
              13.0855134250701
            ],
            [
              80.2048714246185,
              13.085508482912001
            ]
          ]
        ]
      }
    },
    {
      "type": "Feature",
      "properties": {
        "floor_id": "B021-F01",
        "building_id": "B021",
        "parcel_id": "P000021",
        "floor_number": 1,
        "z_min": 0.0,
        "z_max": 3.2,
        "data_status": "DEMO / SYNTHETIC"
      },
      "geometry": {
        "type": "Polygon",
        "coordinates": [
          [
            [
              80.2054482110104,
              13.0853484702822
            ],
            [
              80.20544748247211,
              13.0854627912479
            ],
            [
              80.20540118681521,
              13.0854625077448
            ],
            [
              80.205401306748,
              13.0854436886949
            ],
            [
              80.20534534618831,
              13.0854433459956
            ],
            [
              80.2053459548367,
              13.0853478440825
            ],
            [
              80.2054482110104,
              13.0853484702822
            ]
          ]
        ]
      }
    },
    {
      "type": "Feature",
      "properties": {
        "floor_id": "B021-F02",
        "building_id": "B021",
        "parcel_id": "P000021",
        "floor_number": 2,
        "z_min": 3.2,
        "z_max": 6.4,
        "data_status": "DEMO / SYNTHETIC"
      },
      "geometry": {
        "type": "Polygon",
        "coordinates": [
          [
            [
              80.2054482110104,
              13.0853484702822
            ],
            [
              80.20544748247211,
              13.0854627912479
            ],
            [
              80.20540118681521,
              13.0854625077448
            ],
            [
              80.205401306748,
              13.0854436886949
            ],
            [
              80.20534534618831,
              13.0854433459956
            ],
            [
              80.2053459548367,
              13.0853478440825
            ],
            [
              80.2054482110104,
              13.0853484702822
            ]
          ]
        ]
      }
    },
    {
      "type": "Feature",
      "properties": {
        "floor_id": "B021-F03",
        "building_id": "B021",
        "parcel_id": "P000021",
        "floor_number": 3,
        "z_min": 6.4,
        "z_max": 9.600000000000001,
        "data_status": "DEMO / SYNTHETIC"
      },
      "geometry": {
        "type": "Polygon",
        "coordinates": [
          [
            [
              80.2054482110104,
              13.0853484702822
            ],
            [
              80.20544748247211,
              13.0854627912479
            ],
            [
              80.20540118681521,
              13.0854625077448
            ],
            [
              80.205401306748,
              13.0854436886949
            ],
            [
              80.20534534618831,
              13.0854433459956
            ],
            [
              80.2053459548367,
              13.0853478440825
            ],
            [
              80.2054482110104,
              13.0853484702822
            ]
          ]
        ]
      }
    },
    {
      "type": "Feature",
      "properties": {
        "floor_id": "B022-F01",
        "building_id": "B022",
        "parcel_id": "P000022",
        "floor_number": 1,
        "z_min": 0.0,
        "z_max": 3.2,
        "data_status": "DEMO / SYNTHETIC"
      },
      "geometry": {
        "type": "Polygon",
        "coordinates": [
          [
            [
              80.20526968303601,
              13.0842318498112
            ],
            [
              80.2053781830346,
              13.084237049807701
            ],
            [
              80.2053695830407,
              13.084409749808
            ],
            [
              80.2052611830421,
              13.0844045498115
            ],
            [
              80.20526968303601,
              13.0842318498112
            ]
          ]
        ]
      }
    },
    {
      "type": "Feature",
      "properties": {
        "floor_id": "B022-F02",
        "building_id": "B022",
        "parcel_id": "P000022",
        "floor_number": 2,
        "z_min": 3.2,
        "z_max": 6.4,
        "data_status": "DEMO / SYNTHETIC"
      },
      "geometry": {
        "type": "Polygon",
        "coordinates": [
          [
            [
              80.20526968303601,
              13.0842318498112
            ],
            [
              80.2053781830346,
              13.084237049807701
            ],
            [
              80.2053695830407,
              13.084409749808
            ],
            [
              80.2052611830421,
              13.0844045498115
            ],
            [
              80.20526968303601,
              13.0842318498112
            ]
          ]
        ]
      }
    },
    {
      "type": "Feature",
      "properties": {
        "floor_id": "B022-F03",
        "building_id": "B022",
        "parcel_id": "P000022",
        "floor_number": 3,
        "z_min": 6.4,
        "z_max": 9.600000000000001,
        "data_status": "DEMO / SYNTHETIC"
      },
      "geometry": {
        "type": "Polygon",
        "coordinates": [
          [
            [
              80.20526968303601,
              13.0842318498112
            ],
            [
              80.2053781830346,
              13.084237049807701
            ],
            [
              80.2053695830407,
              13.084409749808
            ],
            [
              80.2052611830421,
              13.0844045498115
            ],
            [
              80.20526968303601,
              13.0842318498112
            ]
          ]
        ]
      }
    },
    {
      "type": "Feature",
      "properties": {
        "floor_id": "B022-F04",
        "building_id": "B022",
        "parcel_id": "P000022",
        "floor_number": 4,
        "z_min": 9.600000000000001,
        "z_max": 12.8,
        "data_status": "DEMO / SYNTHETIC"
      },
      "geometry": {
        "type": "Polygon",
        "coordinates": [
          [
            [
              80.20526968303601,
              13.0842318498112
            ],
            [
              80.2053781830346,
              13.084237049807701
            ],
            [
              80.2053695830407,
              13.084409749808
            ],
            [
              80.2052611830421,
              13.0844045498115
            ],
            [
              80.20526968303601,
              13.0842318498112
            ]
          ]
        ]
      }
    },
    {
      "type": "Feature",
      "properties": {
        "floor_id": "B022-F05",
        "building_id": "B022",
        "parcel_id": "P000022",
        "floor_number": 5,
        "z_min": 12.8,
        "z_max": 16.0,
        "data_status": "DEMO / SYNTHETIC"
      },
      "geometry": {
        "type": "Polygon",
        "coordinates": [
          [
            [
              80.20526968303601,
              13.0842318498112
            ],
            [
              80.2053781830346,
              13.084237049807701
            ],
            [
              80.2053695830407,
              13.084409749808
            ],
            [
              80.2052611830421,
              13.0844045498115
            ],
            [
              80.20526968303601,
              13.0842318498112
            ]
          ]
        ]
      }
    },
    {
      "type": "Feature",
      "properties": {
        "floor_id": "B023-F01",
        "building_id": "B023",
        "parcel_id": "P000023",
        "floor_number": 1,
        "z_min": 0.0,
        "z_max": 3.2,
        "data_status": "DEMO / SYNTHETIC"
      },
      "geometry": {
        "type": "Polygon",
        "coordinates": [
          [
            [
              80.2043084296392,
              13.084580590027
            ],
            [
              80.2043059780289,
              13.0847543446856
            ],
            [
              80.2041883291444,
              13.0847527495519
            ],
            [
              80.2041907808369,
              13.0845789948993
            ],
            [
              80.2043084296392,
              13.084580590027
            ]
          ]
        ]
      }
    },
    {
      "type": "Feature",
      "properties": {
        "floor_id": "B023-F02",
        "building_id": "B023",
        "parcel_id": "P000023",
        "floor_number": 2,
        "z_min": 3.2,
        "z_max": 6.4,
        "data_status": "DEMO / SYNTHETIC"
      },
      "geometry": {
        "type": "Polygon",
        "coordinates": [
          [
            [
              80.2043084296392,
              13.084580590027
            ],
            [
              80.2043059780289,
              13.0847543446856
            ],
            [
              80.2041883291444,
              13.0847527495519
            ],
            [
              80.2041907808369,
              13.0845789948993
            ],
            [
              80.2043084296392,
              13.084580590027
            ]
          ]
        ]
      }
    },
    {
      "type": "Feature",
      "properties": {
        "floor_id": "B023-F03",
        "building_id": "B023",
        "parcel_id": "P000023",
        "floor_number": 3,
        "z_min": 6.4,
        "z_max": 9.600000000000001,
        "data_status": "DEMO / SYNTHETIC"
      },
      "geometry": {
        "type": "Polygon",
        "coordinates": [
          [
            [
              80.2043084296392,
              13.084580590027
            ],
            [
              80.2043059780289,
              13.0847543446856
            ],
            [
              80.2041883291444,
              13.0847527495519
            ],
            [
              80.2041907808369,
              13.0845789948993
            ],
            [
              80.2043084296392,
              13.084580590027
            ]
          ]
        ]
      }
    },
    {
      "type": "Feature",
      "properties": {
        "floor_id": "B023-F04",
        "building_id": "B023",
        "parcel_id": "P000023",
        "floor_number": 4,
        "z_min": 9.600000000000001,
        "z_max": 12.8,
        "data_status": "DEMO / SYNTHETIC"
      },
      "geometry": {
        "type": "Polygon",
        "coordinates": [
          [
            [
              80.2043084296392,
              13.084580590027
            ],
            [
              80.2043059780289,
              13.0847543446856
            ],
            [
              80.2041883291444,
              13.0847527495519
            ],
            [
              80.2041907808369,
              13.0845789948993
            ],
            [
              80.2043084296392,
              13.084580590027
            ]
          ]
        ]
      }
    },
    {
      "type": "Feature",
      "properties": {
        "floor_id": "B023-F05",
        "building_id": "B023",
        "parcel_id": "P000023",
        "floor_number": 5,
        "z_min": 12.8,
        "z_max": 16.0,
        "data_status": "DEMO / SYNTHETIC"
      },
      "geometry": {
        "type": "Polygon",
        "coordinates": [
          [
            [
              80.2043084296392,
              13.084580590027
            ],
            [
              80.2043059780289,
              13.0847543446856
            ],
            [
              80.2041883291444,
              13.0847527495519
            ],
            [
              80.2041907808369,
              13.0845789948993
            ],
            [
              80.2043084296392,
              13.084580590027
            ]
          ]
        ]
      }
    },
    {
      "type": "Feature",
      "properties": {
        "floor_id": "B024-F01",
        "building_id": "B024",
        "parcel_id": "P000024",
        "floor_number": 1,
        "z_min": 0.0,
        "z_max": 3.2,
        "data_status": "DEMO / SYNTHETIC"
      },
      "geometry": {
        "type": "Polygon",
        "coordinates": [
          [
            [
              80.2047120702713,
              13.085516552018
            ],
            [
              80.2047192702416,
              13.0856531848535
            ],
            [
              80.2046075803948,
              13.0856588403451
            ],
            [
              80.204604931684,
              13.0856085757043
            ],
            [
              80.2046016575752,
              13.0856087414903
            ],
            [
              80.2045971063787,
              13.085522373296
            ],
            [
              80.2047120702713,
              13.085516552018
            ]
          ]
        ]
      }
    },
    {
      "type": "Feature",
      "properties": {
        "floor_id": "B024-F02",
        "building_id": "B024",
        "parcel_id": "P000024",
        "floor_number": 2,
        "z_min": 3.2,
        "z_max": 6.4,
        "data_status": "DEMO / SYNTHETIC"
      },
      "geometry": {
        "type": "Polygon",
        "coordinates": [
          [
            [
              80.2047120702713,
              13.085516552018
            ],
            [
              80.2047192702416,
              13.0856531848535
            ],
            [
              80.2046075803948,
              13.0856588403451
            ],
            [
              80.204604931684,
              13.0856085757043
            ],
            [
              80.2046016575752,
              13.0856087414903
            ],
            [
              80.2045971063787,
              13.085522373296
            ],
            [
              80.2047120702713,
              13.085516552018
            ]
          ]
        ]
      }
    },
    {
      "type": "Feature",
      "properties": {
        "floor_id": "B024-F03",
        "building_id": "B024",
        "parcel_id": "P000024",
        "floor_number": 3,
        "z_min": 6.4,
        "z_max": 9.600000000000001,
        "data_status": "DEMO / SYNTHETIC"
      },
      "geometry": {
        "type": "Polygon",
        "coordinates": [
          [
            [
              80.2047120702713,
              13.085516552018
            ],
            [
              80.2047192702416,
              13.0856531848535
            ],
            [
              80.2046075803948,
              13.0856588403451
            ],
            [
              80.204604931684,
              13.0856085757043
            ],
            [
              80.2046016575752,
              13.0856087414903
            ],
            [
              80.2045971063787,
              13.085522373296
            ],
            [
              80.2047120702713,
              13.085516552018
            ]
          ]
        ]
      }
    },
    {
      "type": "Feature",
      "properties": {
        "floor_id": "B024-F04",
        "building_id": "B024",
        "parcel_id": "P000024",
        "floor_number": 4,
        "z_min": 9.600000000000001,
        "z_max": 12.8,
        "data_status": "DEMO / SYNTHETIC"
      },
      "geometry": {
        "type": "Polygon",
        "coordinates": [
          [
            [
              80.2047120702713,
              13.085516552018
            ],
            [
              80.2047192702416,
              13.0856531848535
            ],
            [
              80.2046075803948,
              13.0856588403451
            ],
            [
              80.204604931684,
              13.0856085757043
            ],
            [
              80.2046016575752,
              13.0856087414903
            ],
            [
              80.2045971063787,
              13.085522373296
            ],
            [
              80.2047120702713,
              13.085516552018
            ]
          ]
        ]
      }
    },
    {
      "type": "Feature",
      "properties": {
        "floor_id": "B024-F05",
        "building_id": "B024",
        "parcel_id": "P000024",
        "floor_number": 5,
        "z_min": 12.8,
        "z_max": 16.0,
        "data_status": "DEMO / SYNTHETIC"
      },
      "geometry": {
        "type": "Polygon",
        "coordinates": [
          [
            [
              80.2047120702713,
              13.085516552018
            ],
            [
              80.2047192702416,
              13.0856531848535
            ],
            [
              80.2046075803948,
              13.0856588403451
            ],
            [
              80.204604931684,
              13.0856085757043
            ],
            [
              80.2046016575752,
              13.0856087414903
            ],
            [
              80.2045971063787,
              13.085522373296
            ],
            [
              80.2047120702713,
              13.085516552018
            ]
          ]
        ]
      }
    },
    {
      "type": "Feature",
      "properties": {
        "floor_id": "B025-F01",
        "building_id": "B025",
        "parcel_id": "P000025",
        "floor_number": 1,
        "z_min": 0.0,
        "z_max": 3.2,
        "data_status": "DEMO / SYNTHETIC"
      },
      "geometry": {
        "type": "Polygon",
        "coordinates": [
          [
            [
              80.20528407180561,
              13.0856331349017
            ],
            [
              80.2051749921975,
              13.0856421145637
            ],
            [
              80.2051633840977,
              13.0855066178215
            ],
            [
              80.205272463646,
              13.085497638161
            ],
            [
              80.20528407180561,
              13.0856331349017
            ]
          ]
        ]
      }
    },
    {
      "type": "Feature",
      "properties": {
        "floor_id": "B025-F02",
        "building_id": "B025",
        "parcel_id": "P000025",
        "floor_number": 2,
        "z_min": 3.2,
        "z_max": 6.4,
        "data_status": "DEMO / SYNTHETIC"
      },
      "geometry": {
        "type": "Polygon",
        "coordinates": [
          [
            [
              80.20528407180561,
              13.0856331349017
            ],
            [
              80.2051749921975,
              13.0856421145637
            ],
            [
              80.2051633840977,
              13.0855066178215
            ],
            [
              80.205272463646,
              13.085497638161
            ],
            [
              80.20528407180561,
              13.0856331349017
            ]
          ]
        ]
      }
    },
    {
      "type": "Feature",
      "properties": {
        "floor_id": "B025-F03",
        "building_id": "B025",
        "parcel_id": "P000025",
        "floor_number": 3,
        "z_min": 6.4,
        "z_max": 9.600000000000001,
        "data_status": "DEMO / SYNTHETIC"
      },
      "geometry": {
        "type": "Polygon",
        "coordinates": [
          [
            [
              80.20528407180561,
              13.0856331349017
            ],
            [
              80.2051749921975,
              13.0856421145637
            ],
            [
              80.2051633840977,
              13.0855066178215
            ],
            [
              80.205272463646,
              13.085497638161
            ],
            [
              80.20528407180561,
              13.0856331349017
            ]
          ]
        ]
      }
    },
    {
      "type": "Feature",
      "properties": {
        "floor_id": "B025-F04",
        "building_id": "B025",
        "parcel_id": "P000025",
        "floor_number": 4,
        "z_min": 9.600000000000001,
        "z_max": 12.8,
        "data_status": "DEMO / SYNTHETIC"
      },
      "geometry": {
        "type": "Polygon",
        "coordinates": [
          [
            [
              80.20528407180561,
              13.0856331349017
            ],
            [
              80.2051749921975,
              13.0856421145637
            ],
            [
              80.2051633840977,
              13.0855066178215
            ],
            [
              80.205272463646,
              13.085497638161
            ],
            [
              80.20528407180561,
              13.0856331349017
            ]
          ]
        ]
      }
    },
    {
      "type": "Feature",
      "properties": {
        "floor_id": "B026-F01",
        "building_id": "B026",
        "parcel_id": "P000026",
        "floor_number": 1,
        "z_min": 0.0,
        "z_max": 3.2,
        "data_status": "DEMO / SYNTHETIC"
      },
      "geometry": {
        "type": "Polygon",
        "coordinates": [
          [
            [
              80.20577408305411,
              13.084825049806
            ],
            [
              80.205526583058,
              13.0848337498141
            ],
            [
              80.2055228830545,
              13.0847324498142
            ],
            [
              80.2057702830507,
              13.0847236498061
            ],
            [
              80.20577408305411,
              13.084825049806
            ]
          ]
        ]
      }
    },
    {
      "type": "Feature",
      "properties": {
        "floor_id": "B026-F02",
        "building_id": "B026",
        "parcel_id": "P000026",
        "floor_number": 2,
        "z_min": 3.2,
        "z_max": 6.4,
        "data_status": "DEMO / SYNTHETIC"
      },
      "geometry": {
        "type": "Polygon",
        "coordinates": [
          [
            [
              80.20577408305411,
              13.084825049806
            ],
            [
              80.205526583058,
              13.0848337498141
            ],
            [
              80.2055228830545,
              13.0847324498142
            ],
            [
              80.2057702830507,
              13.0847236498061
            ],
            [
              80.20577408305411,
              13.084825049806
            ]
          ]
        ]
      }
    },
    {
      "type": "Feature",
      "properties": {
        "floor_id": "B026-F03",
        "building_id": "B026",
        "parcel_id": "P000026",
        "floor_number": 3,
        "z_min": 6.4,
        "z_max": 9.600000000000001,
        "data_status": "DEMO / SYNTHETIC"
      },
      "geometry": {
        "type": "Polygon",
        "coordinates": [
          [
            [
              80.20577408305411,
              13.084825049806
            ],
            [
              80.205526583058,
              13.0848337498141
            ],
            [
              80.2055228830545,
              13.0847324498142
            ],
            [
              80.2057702830507,
              13.0847236498061
            ],
            [
              80.20577408305411,
              13.084825049806
            ]
          ]
        ]
      }
    },
    {
      "type": "Feature",
      "properties": {
        "floor_id": "B026-F04",
        "building_id": "B026",
        "parcel_id": "P000026",
        "floor_number": 4,
        "z_min": 9.600000000000001,
        "z_max": 12.8,
        "data_status": "DEMO / SYNTHETIC"
      },
      "geometry": {
        "type": "Polygon",
        "coordinates": [
          [
            [
              80.20577408305411,
              13.084825049806
            ],
            [
              80.205526583058,
              13.0848337498141
            ],
            [
              80.2055228830545,
              13.0847324498142
            ],
            [
              80.2057702830507,
              13.0847236498061
            ],
            [
              80.20577408305411,
              13.084825049806
            ]
          ]
        ]
      }
    },
    {
      "type": "Feature",
      "properties": {
        "floor_id": "B027-F01",
        "building_id": "B027",
        "parcel_id": "P000027",
        "floor_number": 1,
        "z_min": 0.0,
        "z_max": 3.2,
        "data_status": "DEMO / SYNTHETIC"
      },
      "geometry": {
        "type": "Polygon",
        "coordinates": [
          [
            [
              80.2056856082565,
              13.0852349463139
            ],
            [
              80.2055186105612,
              13.0852415994003
            ],
            [
              80.2055161280649,
              13.085181721882
            ],
            [
              80.20568312572141,
              13.085175068794701
            ],
            [
              80.2056856082565,
              13.0852349463139
            ]
          ]
        ]
      }
    },
    {
      "type": "Feature",
      "properties": {
        "floor_id": "B027-F02",
        "building_id": "B027",
        "parcel_id": "P000027",
        "floor_number": 2,
        "z_min": 3.2,
        "z_max": 6.4,
        "data_status": "DEMO / SYNTHETIC"
      },
      "geometry": {
        "type": "Polygon",
        "coordinates": [
          [
            [
              80.2056856082565,
              13.0852349463139
            ],
            [
              80.2055186105612,
              13.0852415994003
            ],
            [
              80.2055161280649,
              13.085181721882
            ],
            [
              80.20568312572141,
              13.085175068794701
            ],
            [
              80.2056856082565,
              13.0852349463139
            ]
          ]
        ]
      }
    },
    {
      "type": "Feature",
      "properties": {
        "floor_id": "B027-F03",
        "building_id": "B027",
        "parcel_id": "P000027",
        "floor_number": 3,
        "z_min": 6.4,
        "z_max": 9.600000000000001,
        "data_status": "DEMO / SYNTHETIC"
      },
      "geometry": {
        "type": "Polygon",
        "coordinates": [
          [
            [
              80.2056856082565,
              13.0852349463139
            ],
            [
              80.2055186105612,
              13.0852415994003
            ],
            [
              80.2055161280649,
              13.085181721882
            ],
            [
              80.20568312572141,
              13.085175068794701
            ],
            [
              80.2056856082565,
              13.0852349463139
            ]
          ]
        ]
      }
    },
    {
      "type": "Feature",
      "properties": {
        "floor_id": "B027-F04",
        "building_id": "B027",
        "parcel_id": "P000027",
        "floor_number": 4,
        "z_min": 9.600000000000001,
        "z_max": 12.8,
        "data_status": "DEMO / SYNTHETIC"
      },
      "geometry": {
        "type": "Polygon",
        "coordinates": [
          [
            [
              80.2056856082565,
              13.0852349463139
            ],
            [
              80.2055186105612,
              13.0852415994003
            ],
            [
              80.2055161280649,
              13.085181721882
            ],
            [
              80.20568312572141,
              13.085175068794701
            ],
            [
              80.2056856082565,
              13.0852349463139
            ]
          ]
        ]
      }
    },
    {
      "type": "Feature",
      "properties": {
        "floor_id": "B027-F05",
        "building_id": "B027",
        "parcel_id": "P000027",
        "floor_number": 5,
        "z_min": 12.8,
        "z_max": 16.0,
        "data_status": "DEMO / SYNTHETIC"
      },
      "geometry": {
        "type": "Polygon",
        "coordinates": [
          [
            [
              80.2056856082565,
              13.0852349463139
            ],
            [
              80.2055186105612,
              13.0852415994003
            ],
            [
              80.2055161280649,
              13.085181721882
            ],
            [
              80.20568312572141,
              13.085175068794701
            ],
            [
              80.2056856082565,
              13.0852349463139
            ]
          ]
        ]
      }
    },
    {
      "type": "Feature",
      "properties": {
        "floor_id": "B028-F01",
        "building_id": "B028",
        "parcel_id": "P000028",
        "floor_number": 1,
        "z_min": 0.0,
        "z_max": 3.2,
        "data_status": "DEMO / SYNTHETIC"
      },
      "geometry": {
        "type": "Polygon",
        "coordinates": [
          [
            [
              80.204475308995,
              13.0844295092695
            ],
            [
              80.2043502530297,
              13.0844363340845
            ],
            [
              80.2043410310592,
              13.0842739563454
            ],
            [
              80.2044660869425,
              13.0842671315301
            ],
            [
              80.204475308995,
              13.0844295092695
            ]
          ]
        ]
      }
    },
    {
      "type": "Feature",
      "properties": {
        "floor_id": "B028-F02",
        "building_id": "B028",
        "parcel_id": "P000028",
        "floor_number": 2,
        "z_min": 3.2,
        "z_max": 6.4,
        "data_status": "DEMO / SYNTHETIC"
      },
      "geometry": {
        "type": "Polygon",
        "coordinates": [
          [
            [
              80.204475308995,
              13.0844295092695
            ],
            [
              80.2043502530297,
              13.0844363340845
            ],
            [
              80.2043410310592,
              13.0842739563454
            ],
            [
              80.2044660869425,
              13.0842671315301
            ],
            [
              80.204475308995,
              13.0844295092695
            ]
          ]
        ]
      }
    },
    {
      "type": "Feature",
      "properties": {
        "floor_id": "B029-F01",
        "building_id": "B029",
        "parcel_id": "P000029",
        "floor_number": 1,
        "z_min": 0.0,
        "z_max": 3.2,
        "data_status": "DEMO / SYNTHETIC"
      },
      "geometry": {
        "type": "Polygon",
        "coordinates": [
          [
            [
              80.2044984831071,
              13.0855547498692
            ],
            [
              80.20460478310551,
              13.085551049865801
            ],
            [
              80.2046082831087,
              13.0856454498657
            ],
            [
              80.2045019831103,
              13.0856491498691
            ],
            [
              80.2044984831071,
              13.0855547498692
            ]
          ]
        ]
      }
    },
    {
      "type": "Feature",
      "properties": {
        "floor_id": "B029-F02",
        "building_id": "B029",
        "parcel_id": "P000029",
        "floor_number": 2,
        "z_min": 3.2,
        "z_max": 6.4,
        "data_status": "DEMO / SYNTHETIC"
      },
      "geometry": {
        "type": "Polygon",
        "coordinates": [
          [
            [
              80.2044984831071,
              13.0855547498692
            ],
            [
              80.20460478310551,
              13.085551049865801
            ],
            [
              80.2046082831087,
              13.0856454498657
            ],
            [
              80.2045019831103,
              13.0856491498691
            ],
            [
              80.2044984831071,
              13.0855547498692
            ]
          ]
        ]
      }
    },
    {
      "type": "Feature",
      "properties": {
        "floor_id": "B030-F01",
        "building_id": "B030",
        "parcel_id": "P000030",
        "floor_number": 1,
        "z_min": 0.0,
        "z_max": 3.2,
        "data_status": "DEMO / SYNTHETIC"
      },
      "geometry": {
        "type": "Polygon",
        "coordinates": [
          [
            [
              80.20570519483951,
              13.0845014876354
            ],
            [
              80.2057118535478,
              13.0847063980986
            ],
            [
              80.2056459802133,
              13.084708455030901
            ],
            [
              80.2056439157337,
              13.0846449236543
            ],
            [
              80.2055861696191,
              13.0846467267962
            ],
            [
              80.205581575478,
              13.0845053477117
            ],
            [
              80.20570519483951,
              13.0845014876354
            ]
          ]
        ]
      }
    },
    {
      "type": "Feature",
      "properties": {
        "floor_id": "B030-F02",
        "building_id": "B030",
        "parcel_id": "P000030",
        "floor_number": 2,
        "z_min": 3.2,
        "z_max": 6.4,
        "data_status": "DEMO / SYNTHETIC"
      },
      "geometry": {
        "type": "Polygon",
        "coordinates": [
          [
            [
              80.20570519483951,
              13.0845014876354
            ],
            [
              80.2057118535478,
              13.0847063980986
            ],
            [
              80.2056459802133,
              13.084708455030901
            ],
            [
              80.2056439157337,
              13.0846449236543
            ],
            [
              80.2055861696191,
              13.0846467267962
            ],
            [
              80.205581575478,
              13.0845053477117
            ],
            [
              80.20570519483951,
              13.0845014876354
            ]
          ]
        ]
      }
    },
    {
      "type": "Feature",
      "properties": {
        "floor_id": "B030-F03",
        "building_id": "B030",
        "parcel_id": "P000030",
        "floor_number": 3,
        "z_min": 6.4,
        "z_max": 9.600000000000001,
        "data_status": "DEMO / SYNTHETIC"
      },
      "geometry": {
        "type": "Polygon",
        "coordinates": [
          [
            [
              80.20570519483951,
              13.0845014876354
            ],
            [
              80.2057118535478,
              13.0847063980986
            ],
            [
              80.2056459802133,
              13.084708455030901
            ],
            [
              80.2056439157337,
              13.0846449236543
            ],
            [
              80.2055861696191,
              13.0846467267962
            ],
            [
              80.205581575478,
              13.0845053477117
            ],
            [
              80.20570519483951,
              13.0845014876354
            ]
          ]
        ]
      }
    },
    {
      "type": "Feature",
      "properties": {
        "floor_id": "B030-F04",
        "building_id": "B030",
        "parcel_id": "P000030",
        "floor_number": 4,
        "z_min": 9.600000000000001,
        "z_max": 12.8,
        "data_status": "DEMO / SYNTHETIC"
      },
      "geometry": {
        "type": "Polygon",
        "coordinates": [
          [
            [
              80.20570519483951,
              13.0845014876354
            ],
            [
              80.2057118535478,
              13.0847063980986
            ],
            [
              80.2056459802133,
              13.084708455030901
            ],
            [
              80.2056439157337,
              13.0846449236543
            ],
            [
              80.2055861696191,
              13.0846467267962
            ],
            [
              80.205581575478,
              13.0845053477117
            ],
            [
              80.20570519483951,
              13.0845014876354
            ]
          ]
        ]
      }
    }
  ]
}