{
  "type": "FeatureCollection",
  "features": [
    {
      "type": "Feature",
      "properties": {
        "parcel_id": "P000001",
        "demo_ulpin": "DEMO-TN-CHN-000001",
        "survey_number": "104/1A",
        "area_sqm": 4315.3399500000005,
        "is_primary": true,
        "data_status": "DEMO / SYNTHETIC",
        "source": "Synthetic Cadastre"
      },
      "geometry": {
        "type": "Polygon",
        "coordinates": [
          [
            [
              80.20872876467794,
              13.087209653685132
            ],
            [
              80.20831500225874,
              13.087239373167373
            ],
            [
              80.20831243336595,
              13.087205006485693
            ],
            [
              80.20821832790614,
              13.087211765758934
            ],
            [
              80.20820901497255,
              13.087087176607094
            ],
            [
              80.20816530958703,
              13.087090315806615
            ],
            [
              80.20813982570567,
              13.086749389515013
            ],
            [
              80.20818353104511,
              13.086746250316333
            ],
            [
              80.20817331081851,
              13.086609523064773
            ],
            [
              80.2082917808713,
              13.086601013749814
            ],
            [
              80.20829002541086,
              13.086577529140213
            ],
            [
              80.20859541219178,
              13.086555593989454
            ],
            [
              80.20859716767683,
              13.086579078606132
            ],
            [
              80.20868117761127,
              13.086573044336292
            ],
            [
              80.20872876467794,
              13.087209653685132
            ]
          ]
        ]
      }
    },
    {
      "type": "Feature",
      "properties": {
        "parcel_id": "P000002",
        "demo_ulpin": "DEMO-TN-CHN-000002",
        "survey_number": "104/2A",
        "area_sqm": 2249.8503,
        "is_primary": false,
        "data_status": "DEMO / SYNTHETIC",
        "source": "Synthetic Cadastre"
      },
      "geometry": {
        "type": "Polygon",
        "coordinates": [
          [
            [
              80.20710309490062,
              13.081878384695822
            ],
            [
              80.20712073490674,
              13.08206330469522
            ],
            [
              80.2070693749077,
              13.0820681046969
            ],
            [
              80.20708413491394,
              13.08225578469642
            ],
            [
              80.20710345492067,
              13.0824589446957
            ],
            [
              80.20710009492066,
              13.08245930469582
            ],
            [
              80.20710021492077,
              13.082460984695821
            ],
            [
              80.20689057492439,
              13.08247838470266
            ],
            [
              80.20689045492426,
              13.082476824702661
            ],
            [
              80.20688697492439,
              13.08247706470278
            ],
            [
              80.20687929492114,
              13.08237962470302
            ],
            [
              80.20681161492222,
              13.0823846647053
            ],
            [
              80.20679073491418,
              13.08213914470602
            ],
            [
              80.20673577491503,
              13.0821433447077
            ],
            [
              80.2067242549101,
              13.08199586470818
            ],
            [
              80.20671645490746,
              13.08191378470842
            ],
            [
              80.20671789490746,
              13.081913664708301
            ],
            [
              80.20671765490734,
              13.0819110247083
            ],
            [
              80.2068785749046,
              13.08189890470314
            ],
            [
              80.20710309490062,
              13.081878384695822
            ]
          ]
        ]
      }
    },
    {
      "type": "Feature",
      "properties": {
        "parcel_id": "P000003",
        "demo_ulpin": "DEMO-TN-CHN-000003",
        "survey_number": "104/3A",
        "area_sqm": 1857.0670499999999,
        "is_primary": false,
        "data_status": "DEMO / SYNTHETIC",
        "source": "Synthetic Cadastre"
      },
      "geometry": {
        "type": "Polygon",
        "coordinates": [
          [
            [
              80.20905877550011,
              13.087293945959047
            ],
            [
              80.20909717551629,
              13.087782345957725
            ],
            [
              80.20895197551881,
              13.087793265962526
            ],
            [
              80.20895401551967,
              13.087818105962407
            ],
            [
              80.20909921551714,
              13.087807185957725
            ],
            [
              80.20911781552506,
              13.088043705957126
            ],
            [
              80.20892665552829,
              13.088058105963366
            ],
            [
              80.20891585552373,
              13.087920825963726
            ],
            [
              80.2088907755241,
              13.087922745964446
            ],
            [
              80.20888297552086,
              13.087823505964806
            ],
            [
              80.20890805552038,
              13.087821585963967
            ],
            [
              80.20888981551269,
              13.087589505964566
            ],
            [
              80.20893577551186,
              13.087586025963008
            ],
            [
              80.20893457551138,
              13.087570905963126
            ],
            [
              80.20886353551258,
              13.087576305965406
            ],
            [
              80.20885465550886,
              13.087463505965648
            ],
            [
              80.20887973550838,
              13.087461585964807
            ],
            [
              80.20887661550705,
              13.087422225964925
            ],
            [
              80.20885153550753,
              13.087424145965766
            ],
            [
              80.2088425355037,
              13.087310265966126
            ],
            [
              80.20905877550011,
              13.087293945959047
            ]
          ]
        ]
      }
    },
    {
      "type": "Feature",
      "properties": {
        "parcel_id": "P000004",
        "demo_ulpin": "DEMO-TN-CHN-000004",
        "survey_number": "104/4A",
        "area_sqm": 1721.80755,
        "is_primary": false,
        "data_status": "DEMO / SYNTHETIC",
        "source": "Synthetic Cadastre"
      },
      "geometry": {
        "type": "Polygon",
        "coordinates": [
          [
            [
              80.20487735387547,
              13.08967327114042
            ],
            [
              80.2048901938769,
              13.08972127113994
            ],
            [
              80.20485071387787,
              13.08973171114126
            ],
            [
              80.20488263388135,
              13.089845831140181
            ],
            [
              80.20487471388147,
              13.08984787114042
            ],
            [
              80.20488467388255,
              13.089884351140181
            ],
            [
              80.20434263389527,
              13.09002703115782
            ],
            [
              80.20432415389334,
              13.089960791158418
            ],
            [
              80.20423031389551,
              13.08998551116154
            ],
            [
              80.20421303389358,
              13.089922511162019
            ],
            [
              80.20423955389299,
              13.089915431161181
            ],
            [
              80.20421255388999,
              13.08981895116202
            ],
            [
              80.20437155388626,
              13.08977635115686
            ],
            [
              80.20437311388639,
              13.089781871156859
            ],
            [
              80.20448447388374,
              13.08975259115314
            ],
            [
              80.20449119388459,
              13.08977683115302
            ],
            [
              80.20487735387547,
              13.08967327114042
            ]
          ]
        ]
      }
    },
    {
      "type": "Feature",
      "properties": {
        "parcel_id": "P000005",
        "demo_ulpin": "DEMO-TN-CHN-000005",
        "survey_number": "104/5A",
        "area_sqm": 1556.5327499999999,
        "is_primary": false,
        "data_status": "DEMO / SYNTHETIC",
        "source": "Synthetic Cadastre"
      },
      "geometry": {
        "type": "Polygon",
        "coordinates": [
          [
            [
              80.20484572772274,
              13.089496943290808
            ],
            [
              80.20482460772321,
              13.089502343291526
            ],
            [
              80.20484740772596,
              13.089589103290807
            ],
            [
              80.20430392773845,
              13.089726383308568
            ],
            [
              80.20428916773677,
              13.089670103309047
            ],
            [
              80.20426636773726,
              13.089675863309768
            ],
            [
              80.20422760773282,
              13.089528743311085
            ],
            [
              80.20481500771926,
              13.089380423291885
            ],
            [
              80.20484572772274,
              13.089496943290808
            ]
          ]
        ]
      }
    },
    {
      "type": "Feature",
      "properties": {
        "parcel_id": "P000006",
        "demo_ulpin": "DEMO-TN-CHN-000006",
        "survey_number": "104/6A",
        "area_sqm": 1435.8888,
        "is_primary": false,
        "data_status": "DEMO / SYNTHETIC",
        "source": "Synthetic Cadastre"
      },
      "geometry": {
        "type": "Polygon",
        "coordinates": [
          [
            [
              80.20426782562515,
              13.082592962016703
            ],
            [
              80.20408606604069,
              13.082601353586702
            ],
            [
              80.20408491007167,
              13.082577293505821
            ],
            [
              80.203773307966,
              13.082591679464024
            ],
            [
              80.20376261258008,
              13.082369063113783
            ],
            [
              80.20425597388575,
              13.082346285580662
            ],
            [
              80.20426782562515,
              13.082592962016703
            ]
          ]
        ]
      }
    },
    {
      "type": "Feature",
      "properties": {
        "parcel_id": "P000007",
        "demo_ulpin": "DEMO-TN-CHN-000007",
        "survey_number": "104/7A",
        "area_sqm": 1428.5553,
        "is_primary": false,
        "data_status": "DEMO / SYNTHETIC",
        "source": "Synthetic Cadastre"
      },
      "geometry": {
        "type": "Polygon",
        "coordinates": [
          [
            [
              80.20487140325396,
              13.089008139273734
            ],
            [
              80.20441108326153,
              13.089036099288736
            ],
            [
              80.20441096326142,
              13.089034299288736
            ],
            [
              80.20435540326237,
              13.089037779290534
            ],
            [
              80.20434376325625,
              13.088853699290894
            ],
            [
              80.20436824325577,
              13.088852259290174
            ],
            [
              80.20436668325492,
              13.088827899290175
            ],
            [
              80.20439776325446,
              13.088825979289215
            ],
            [
              80.20439932325529,
              13.088850339289094
            ],
            [
              80.20444756325445,
              13.088847459287534
            ],
            [
              80.20444432325277,
              13.088796219287653
            ],
            [
              80.20477516324736,
              13.088776059276855
            ],
            [
              80.20477852324905,
              13.088827299276735
            ],
            [
              80.20485964324773,
              13.088822379274095
            ],
            [
              80.20487140325396,
              13.089008139273734
            ]
          ]
        ]
      }
    },
    {
      "type": "Feature",
      "properties": {
        "parcel_id": "P000008",
        "demo_ulpin": "DEMO-TN-CHN-000008",
        "survey_number": "104/8A",
        "area_sqm": 1290.4512,
        "is_primary": false,
        "data_status": "DEMO / SYNTHETIC",
        "source": "Synthetic Cadastre"
      },
      "geometry": {
        "type": "Polygon",
        "coordinates": [
          [
            [
              80.20238076739119,
              13.084655616276816
            ],
            [
              80.20191400789119,
              13.084687254263855
            ],
            [
              80.20189853663933,
              13.084467922496017
            ],
            [
              80.20236529579407,
              13.084436284512096
            ],
            [
              80.20238076739119,
              13.084655616276816
            ]
          ]
        ]
      }
    },
    {
      "type": "Feature",
      "properties": {
        "parcel_id": "P000009",
        "demo_ulpin": "DEMO-TN-CHN-000009",
        "survey_number": "104/9A",
        "area_sqm": 1274.6102999999998,
        "is_primary": false,
        "data_status": "DEMO / SYNTHETIC",
        "source": "Synthetic Cadastre"
      },
      "geometry": {
        "type": "Polygon",
        "coordinates": [
          [
            [
              80.20828731938857,
              13.087730010048523
            ],
            [
              80.20791599430649,
              13.087760707091924
            ],
            [
              80.20789262002106,
              13.087489016055404
            ],
            [
              80.20826394476101,
              13.087458319020525
            ],
            [
              80.20828731938857,
              13.087730010048523
            ]
          ]
        ]
      }
    },
    {
      "type": "Feature",
      "properties": {
        "parcel_id": "P000010",
        "demo_ulpin": "DEMO-TN-CHN-000010",
        "survey_number": "104/10A",
        "area_sqm": 1235.65785,
        "is_primary": false,
        "data_status": "DEMO / SYNTHETIC",
        "source": "Synthetic Cadastre"
      },
      "geometry": {
        "type": "Polygon",
        "coordinates": [
          [
            [
              80.21005426871918,
              13.08516784967551
            ],
            [
              80.21006362872555,
              13.085355409675271
            ],
            [
              80.21005330872566,
              13.085355889675512
            ],
            [
              80.21005486872673,
              13.08538708967551
            ],
            [
              80.20961458873381,
              13.085408209689913
            ],
            [
              80.20960354872649,
              13.085189449690272
            ],
            [
              80.21005426871918,
              13.08516784967551
            ]
          ]
        ]
      }
    }
  ]
}