{
  "type": "FeatureCollection",
  "features": [
    {
      "type": "Feature",
      "properties": {
        "utility_id": "UTIL-WATER-MAIN",
        "type": "WATER",
        "z_min": -2.5,
        "z_max": -1.5,
        "data_status": "DEMO / SYNTHETIC"
      },
      "geometry": {
        "type": "LineString",
        "coordinates": [
          [
            80.2010749245552,
            13.0829932478051
          ],
          [
            80.20206768918295,
            13.0844648976175
          ],
          [
            80.2024558829929,
            13.082418999857751
          ],
          [
            80.2026345830856,
            13.0844865999038
          ],
          [
            80.20281883525665,
            13.08911771178905
          ],
          [
            80.2028336150787,
            13.08941690730035
          ],
          [
            80.2035043900064,
            13.0816357219251
          ],
          [
            80.20388757581381,
            13.087717851591101
          ],
          [
            80.20394455215205,
            13.082382268683649
          ],
          [
            80.20408733328969,
            13.089489499981852
          ],
          [
            80.20446543328485,
            13.089454999966751
          ],
          [
            80.20447183329556,
            13.08974664997295
          ],
          [
            80.20451633325504,
            13.0888046999505
          ],
          [
            80.20480178187405,
            13.081799107848
          ],
          [
            80.20531938031885,
            13.086471586730351
          ],
          [
            80.20550048309184,
            13.085555599834699
          ],
          [
            80.2065500828536,
            13.080662749678801
          ],
          [
            80.2067513205134,
            13.0833848435314
          ],
          [
            80.20683903290819,
            13.08207894969965
          ],
          [
            80.2069007330588,
            13.08528229978485
          ],
          [
            80.20694153306955,
            13.0855285997851
          ],
          [
            80.2080165480162,
            13.08751352962235
          ],
          [
            80.20802973316705,
            13.088030399812201
          ],
          [
            80.20834446653515,
            13.0867950626255
          ],
          [
            80.20843130457291,
            13.0828313598772
          ],
          [
            80.20844178317115,
            13.0882575998038
          ],
          [
            80.20856693087555,
            13.082187437584349
          ],
          [
            80.2088353330503,
            13.0857261997271
          ],
          [
            80.20889388313341,
            13.087572749770999
          ],
          [
            80.2097693830116,
            13.0851883996822
          ]
        ]
      }
    },
    {
      "type": "Feature",
      "properties": {
        "utility_id": "UTIL-SEWER-MAIN",
        "type": "SEWER",
        "z_min": -2.0,
        "z_max": -1.0,
        "data_status": "DEMO / SYNTHETIC"
      },
      "geometry": {
        "type": "LineString",
        "coordinates": [
          [
            80.2065500828536,
            13.080662749678801
          ],
          [
            80.2035043900064,
            13.0816357219251
          ],
          [
            80.20480178187405,
            13.081799107848
          ],
          [
            80.20683903290819,
            13.08207894969965
          ],
          [
            80.20856693087555,
            13.082187437584349
          ],
          [
            80.20394455215205,
            13.082382268683649
          ],
          [
            80.2024558829929,
            13.082418999857751
          ],
          [
            80.20843130457291,
            13.0828313598772
          ],
          [
            80.2010749245552,
            13.0829932478051
          ],
          [
            80.2067513205134,
            13.0833848435314
          ],
          [
            80.20206768918295,
            13.0844648976175
          ],
          [
            80.2026345830856,
            13.0844865999038
          ],
          [
            80.2097693830116,
            13.0851883996822
          ],
          [
            80.2069007330588,
            13.08528229978485
          ],
          [
            80.20694153306955,
            13.0855285997851
          ],
          [
            80.20550048309184,
            13.085555599834699
          ],
          [
            80.2088353330503,
            13.0857261997271
          ],
          [
            80.20531938031885,
            13.086471586730351
          ],
          [
            80.20834446653515,
            13.0867950626255
          ],
          [
            80.2080165480162,
            13.08751352962235
          ],
          [
            80.20889388313341,
            13.087572749770999
          ],
          [
            80.20388757581381,
            13.087717851591101
          ],
          [
            80.20802973316705,
            13.088030399812201
          ],
          [
            80.20844178317115,
            13.0882575998038
          ],
          [
            80.20451633325504,
            13.0888046999505
          ],
          [
            80.20281883525665,
            13.08911771178905
          ],
          [
            80.2028336150787,
            13.08941690730035
          ],
          [
            80.20446543328485,
            13.089454999966751
          ],
          [
            80.20408733328969,
            13.089489499981852
          ],
          [
            80.20447183329556,
            13.08974664997295
          ]
        ]
      }
    }
  ]
}